type,address,postcode,suburb,lat,lon
Woolworths,CNR Naval College and The Wool Rd,Vincentia,2540,-34.89,150.53
Woolworths,116 Princes Hwy,Ulladulla,2539,-35.52,150.39
Woolworths,Cnr Vesper And North Sts,Batemans Bay,2536,-35.73,150.2
Woolworths,111 Main Street,Merimbula,2548,-36.88,149.92
Woolworths,Cnr Wilcocks Ave And Princes Hwy,Narooma,2546,-36.36,150.08
Woolworths,Cnr of Auckland and Carp St,Bega,2550,-36.64,149.86
Woolworths,61-63 Queen St,Moruya,2537,-35.98,150.11
Woolworths,1-9 Young St,Bermagui,2546,-36.36,150.08
Woolworths,Cnr Tura Beach Dr & Saphire Coast Dr,Tura Beach,2548,-36.88,149.92
Woolworths,Cnr Roscoe St And Old Hume Hwy,Mittagong West,2575,-34.41,150.52
Woolworths,9-13 Kinghorne St,Nowra,2541,-34.84,150.57
Woolworths,Cnr Bong Bong Rd & Banyette St,Bowral,2576,-34.54,150.39
Woolworths,"Kiama View Shop. Ctr, Terralong St",Kiama,2533,-34.66,150.85
Woolworths,New Lake Entrance Rd,Shellharbour,2529,-34.57,150.83
Woolworths,8-22 Weston St,Culburra Beach,2540,-34.89,150.53
Woolworths,"Shellharbour Stocklands Centre, Lake Entrance Rd",Shellharbour,2529,-34.57,150.83
Woolworths,100 Cove Boulevard,Shell Cove,2529,-34.57,150.83
Woolworths,"Shop 2, Stockland Nowra Shop. Ctr, 32-60 East St",Nowra,2541,-34.84,150.57
Woolworths,63 Burelli St,Wollongong,2500,-34.44,150.89
Woolworths,"Stockland Corrimal Shop. Ctr, 193 Princes Hwy & Cnr Railway St",Corrimal,2518,-34.37,150.91
Woolworths,Shellharbour Rd,Warilla,2528,-34.57,150.86
Woolworths,"Dapto Mall, Cnr Princes Hwy And Moombara St",Dapto,2530,-34.51,150.73
Woolworths,66 Princes Hwy,Fairy Meadow,2519,-34.39,150.88
Woolworths,Cnr Terry & Russell St,Albion Park,2527,-34.57,150.78
Woolworths,Cnr Victoria St And Princes H'Way,Unanderra,2526,-34.38,150.78
Woolworths,Cnr Princess Hwy & Molloy St,Bulli,2516,-34.33,150.91
Woolworths,Cnr Princes Hwy And The Ave,Figtree,2525,-34.44,150.86
Woolworths,"Macarthur Sq Shop. Ctr, Cnr Gilchrist Dr And Kellicar Rd",Campbelltown,2560,-34.08,150.83
Woolworths,Cnr Copperfield And Thomas Rose Drs,Rosemeadow,2560,-34.08,150.83
Woolworths,"Narellan Town Centre, Camden VAlly Way",Narellan,2567,-34.05,150.76
Woolworths,Cnr Oxley & Argyle St,Camden,2570,-34.08,150.54
Woolworths,271  Queen St,Campbelltown,2560,-34.08,150.83
Woolworths,Cnr Rememberance Dr And Thirlmere Way,Tahmoor,2573,-34.22,150.59
Woolworths,Cnr of Village Circuit & Gregory Hills Dr,Gregory Hills,2557,-33.99,150.77
Woolworths,Cnr Tindall St And Kellicar And Narellan Rds,Campbelltown,2560,-34.08,150.83
Woolworths,Main St,Mt Annan,2567,-34.05,150.76
Woolworths,254 Richardson Rd,Spring Farm,2570,-34.08,150.54
Woolworths,Oran Park Town Centre,Oran Park,2570,-34.08,150.54
Woolworths,"Eagle Vale MarketPl, Cnr Gould And Feldspar Sts",Eagle Vale,2558,-34.04,150.81
Woolworths,"Moorebank Shop. Vge, 136 Stockton Ave",Moorebank,2170,-33.95,150.91
Woolworths,607 Hume Hwy,Casula,2170,-33.95,150.91
Woolworths,"Westfield Shop. Ctr, Cnr Campbell & Northumberland St",Liverpool,2170,-33.95,150.91
Woolworths,Cnr Nardoo & Norfolk St,Ingleburn,2565,-33.99,150.84
Woolworths,Cartwright Ave,Miller,2168,-33.92,150.9
Woolworths,"Shop 50, Glenquarie Shop. Ctr",Macquarie Fields,2564,-33.99,150.89
Woolworths,10 Brookfield Rd,Minto,2566,-34.02,150.84
Woolworths,1975 - 1985 Camden Valley Way,Prestons,2170,-33.95,150.91
Woolworths,Cnr Cowpasture And Kurajong Rds,Carnes Hill,2171,-33.88,150.85
Woolworths,1 Dickson Pl,Dickson,2602,-35.26,149.15
Woolworths,Cnr Crawford & Antill St,Queanbeyan,2620,-35.58,149.23
Woolworths,Benjamin Way,Belconnen,2617,-35.24,149.07
Woolworths,Cnr Sloane & Verner St,Goulburn,2580,-34.44,149.96
Woolworths,Kippax Fair Hardwick Cres,Holt,2615,-35.2,149.03
Woolworths,31 Hibberson St,Gungahlin,2912,-35.52,149.08
Woolworths,Cnr ShoobRdge Cct & Lance Hill Ave,Dunlop,2615,-35.2,149.03
Woolworths,Charnwood Pl,Charnwood,2615,-35.2,149.03
Woolworths,17 Limestone Dr,Jerrabomberra,2619,-35.38,149.2
Woolworths,Majura Park Centre 28 Spitfire Ave,Majura,2609,-35.3,149.19
Woolworths,Cnr Hindmarsh And Melrose Drs,Woden,2606,-35.35,149.08
Woolworths,12-20 Vale St,Cooma,2630,-36.37,148.95
Woolworths,"Calwell Shop. Ctr, Johnson Dr",Calwell,2905,-35.43,149.08
Woolworths,Mawson Pl,Mawson,2607,-35.38,149.1
Woolworths,Cnr Brierly And Mahoney Cres,Weston Creek,2611,-35.56,148.62
Woolworths,Marconi Cres,Kambah,2902,-35.38,149.05
Woolworths,"Tuggeranong Southpoint, Cnr Anketell & Reed St",Tuggeranong,2900,-35.42,149.07
Woolworths,Comrie St,Wanniassa,2903,-35.4,149.1
Woolworths,Cnr Tharwa Dr And Box Hill Ave,Conder,2906,-35.52,149.08
Woolworths,"Shop 1, Nuggets Crossing",Jindabyne,2627,-36.44,148.51
Woolworths,Cnr Banna Ave And Bonegilla Rd,Griffith,2680,-34.26,146.1
Woolworths,Burrell Pl,Griffith North,2680,-34.26,146.1
Woolworths,87 Baylis St,Wagga Wagga,2650,-35.16,147.51
Woolworths,30 Gurwood St,Wagga Wagga,2650,-35.16,147.51
Woolworths,Kooringal Mall Shop 41- 51 Lake Albert Rd,Kooringal,2650,-35.16,147.51
Woolworths,Cnr Palm And Wamoon Ave,Leeton,2705,-34.49,146.43
Woolworths,Cnr Herlihy & Fitzroy St,Tumut,2720,-35.32,148.45
Woolworths,246-250 Sheridan St,Gundagai,2722,-34.82,148.08
Woolworths,88 Mortimer St,Mudgee,2850,-32.86,149.8
Woolworths,197-203 Anson St,Orange,2800,-33.12,149.03
Woolworths,"Orana Mall MarketPl, Cnr Mitchell Hwy And Wheelers Lane",Dubbo,2830,-32.2,148.9
Woolworths,Macquarie St,Dubbo,2830,-32.2,148.9
Woolworths,William St,Bathurst,2795,-33.91,149.33
Woolworths,224 Mort St,Lithgow,2790,-33.22,150.02
Woolworths,"Cnr Minore And Baird Dr, Delroy Park",West Dubbo,2830,-32.2,148.9
Woolworths,210 Howick St,Bathurst,2795,-33.91,149.33
Woolworths,"Telopea Way, Warratah Park,",North Orange,2800,-33.12,149.03
Woolworths,81 Arthur St,Wellington,2820,-32.6,148.96
Woolworths,Boorowa St,Young,2594,-34.43,148.07
Woolworths,299 Clarinda St,Parkes,2870,-32.93,148.26
Woolworths,Cnr Parker & Bourke St,Cootamundra,2590,-34.76,147.85
Woolworths,104-110 Hoskins St,Temora,2666,-34.46,147.68
Woolworths,3-9 Railway Lane,Cowra,2794,-33.91,148.46
Woolworths,134 Rankin St,Forbes,2871,-33.5,148.31
Woolworths,Cnr Comur & Polding St,Yass,2582,-34.75,148.96
Woolworths,569-589 High St,Penrith,2750,-33.74,150.65
Woolworths,"Lennox Shop. Ctr, Cnr Great Western Hwy And Lawson St",Emu Plains,2750,-33.74,150.65
Woolworths,Cnr Lennox & Paget St,Richmond,2753,-33.62,150.71
Woolworths,Southlands Shop. Ctr 2 Birmingham Rd,South Penrith,2750,-33.74,150.65
Woolworths,Cnr Town Tce And Glenmore Parkway,Glenmore Park,2745,-33.79,150.67
Woolworths,"Windsor Town Shop. Ctr, Kable St",Windsor,2756,-33.64,150.79
Woolworths,80 - 98 Borrowdale Way,Cranebrook,2749,-33.67,150.68
Woolworths,152-160 Leura Mall,Leura,2780,-33.71,150.31
Woolworths,"Cnr Parke & Waratah St,",Katoomba,2780,-33.71,150.31
Woolworths, Cnr Lakeside Pde & Jordan Springs Bvd,Jordan Springs,2747,-33.74,150.72
Woolworths,"Quakers Ct, Cnr Falmouth And Quaker Rds",Marayong,2148,-33.79,150.87
Woolworths,"St Clair Shop. Ctr, Cnr Bennett Rd And Endeavour St",St Clair,2759,-33.81,150.79
Woolworths,"Westfields, 49 Luxford Rd",Mt Druitt,2770,-33.73,150.82
Woolworths,"The Hills Centre, Cnr Federal Rd And Prospect Hwy",Seven Hills,2147,-33.74,150.92
Woolworths,"Plumpton Market Pl, Cnr Jersey And Hyatts Rds",Plumpton,2761,-33.73,150.87
Woolworths,"Westpoint Shop. Ctr, Cnr Alpha And Patrick Sts",Blacktown,2148,-33.79,150.87
Woolworths,Cnr Flushcombe Rd And Myrtle St,Prospect,2148,-33.79,150.87
Woolworths,Cnr James Cook Dr And Ravenhill St,Kings Langley,2147,-33.74,150.92
Woolworths,Shop M1 799 Richmond Rd,Colebee,2761,-33.73,150.87
Woolworths,"Emerton Village Shop. Ctr, Cnr Jersey Rd And Bunting St",Emerton,2770,-33.73,150.82
Woolworths,"St Marys Village Shop. Ctr, Shop 302, Charles Hackett Dr",St Marys,2760,-33.78,150.79
Woolworths,Cnr Railway Pde And Hughes St,Cabramatta,2166,-33.9,150.94
Woolworths,"Neeta City Shop. Ctr, Cnr Nelson & Smart St",Fairfield,2165,-33.87,150.96
Woolworths,Cnr Great Western Hwy And Lane St,Wentworthville,2145,-33.8,150.95
Woolworths,Bonnyrigg Ave,Bonnyrigg,2177,-33.89,150.89
Woolworths,186 The Bvd,Fairfield Heights,2165,-33.87,150.96
Woolworths,Cnr Sandringham Dr And Fedore Rd,Cecil Hills,2171,-33.88,150.85
Woolworths,Cnr Old Prospect Rd  & Greystanes Rd,Pemulwuy,2145,-33.8,150.95
Woolworths,Cnr Restwell Rd and Polding St,Wetherill Park,2164,-33.85,150.94
Woolworths,Cnr Junia Ave And Cornelia Rd,Toongabbie,2146,-33.79,150.97
Woolworths,Wilson Rd,Hinchinbrook,2168,-33.92,150.9
Woolworths,655 Merrylands Rd,Greystanes,2145,-33.8,150.95
Woolworths,"Rouse Hill Town Centre, Cnr White Hart Dr And Caddies Bvd",Rouse Hill,2155,-33.7,150.95
Woolworths,Cnr Old Northern And Olive Sts,Baulkham Hills,2153,-33.76,150.99
Woolworths,936-938 Old Northern Rd,Glenorie,2157,-33.51,151.06
Woolworths,Cnr Riverbank Dr & The Ponds Bvd,The Ponds,2769,-34.05,150.75
Woolworths,"Round Crn, 494-500 Old Northern Rd",Round Corner,2158,-33.68,151.03
Woolworths,88 Wrights Rd,Kellyville,2155,-33.7,150.95
Woolworths,Glenwood Park Dr,Glenwood,2768,-33.74,150.92
Woolworths,1 Circa Bvde,Bella Vista,2153,-33.76,150.99
Woolworths,Cnr Withers & Hezlett Rds,Kellyville North,2155,-33.7,150.95
Woolworths,"Winston Hills Mall, Caroline Chisholm Dr",Winston Hills,2153,-33.76,150.99
Woolworths,Railway Tce and Pelican Rds,Schofields,2762,-33.7,150.89
Woolworths,"Chester Sq Shop. Ctr, 1-13 Leicester St",Chester Hill,2162,-33.88,151
Woolworths,355 Waterloo Rd,Chullora,2190,-33.89,151.06
Woolworths,Westfield Shop. Ctr Campbell St,Parramatta,2150,-33.82,151.01
Woolworths,28-30 Oak St,Rosehill,2150,-33.82,151.01
Woolworths,753 Hume Hwy,Bass Hill,2197,-33.9,150.99
Woolworths,15-16 Woodburn Rd,Berala,2141,-33.87,151.03
Woolworths,209 Pitt St,Merrylands,2160,-33.84,150.99
Woolworths,1 Ave Of Americas,Newington,2127,-33.85,151.08
Woolworths,Cnr Queen And Park St,Auburn,2144,-33.85,151.03
Woolworths,92 Parramatta Rd,Lidcombe,2144,-33.85,151.03
Woolworths,Cnr Louis &  Blaxcell St,Granville,2142,-33.85,151.01
Woolworths,1-9 the Bvd,Punchbowl,2196,-33.93,151.05
Woolworths,2A Charles St,Canterbury,2193,-33.9,151.12
Woolworths,68-72 Evaline St,Campsie,2194,-33.91,151.1
Woolworths,"Centro Shop. Ctr, Lady Cutler Ave",Bankstown,2200,-33.92,151.03
Woolworths,Cnr Knox & Norton St,Ashfield,2131,-33.89,151.13
Woolworths,"Shop 6, Level 3, Westfield Shop. Ctr, Burwood Rd",Burwood,2134,-33.88,151.1
Woolworths,"Burwood Plaza Shop. Ctr, 42-50 Railway Pde",Burwood,2134,-33.88,151.1
Woolworths,"Shop 19, Strathfield Plaza, 11 The Bvd",Strathfield,2135,-33.87,151.09
Woolworths,"Leichhardt Market Pl, Cnr Marion & Flood St",Leichhardt,2040,-33.88,151.16
Woolworths,Mashman Ave,Kingsgrove,2208,-33.94,151.1
Woolworths,2 - 26 Haldon St,Lakemba,2195,-33.92,151.08
Woolworths,10 Fountain St,Alexandria,2015,-33.9,151.2
Woolworths,78-96 Arncliffe St,Wolli Creek,2205,-33.94,151.15
Woolworths,463 Illawarra Rd,Marrickville,2204,-33.91,151.16
Woolworths,"South Point Shop. Ctr, 238-262 Bunnerong Rd",Hillsdale,2036,-33.98,151.24
Woolworths,"Rockdale Plaza, Cnr Princes Hwy And Rockdale Plaza Dr",Rockdale,2216,-33.95,151.14
Woolworths,"Shop 10, Bkk Shop. Ctr, Evans Ave",Eastlakes,2018,-33.93,151.21
Woolworths,"Eastgardens Shop. Ctr, 152 Bunnerong Rd",Pagewood,2036,-33.98,151.24
Woolworths,55 Church Ave,Mascot,2020,-33.93,151.19
Woolworths,"Marrickville Shop. Ctr, 34 Victoria Rd",Marrickville,2204,-33.91,151.16
Woolworths,"Kogarah Town Centre, Railway Pde",Kogarah,2217,-33.98,151.13
Woolworths,Cnr Bunnerong Rd & Daunt Ave Matraville,Matraville,2036,-33.98,151.24
Woolworths,Allison Cres,Menai,2234,-33.99,151.02
Woolworths,247 Belmore Rd,Riverwood,2210,-33.98,151.05
Woolworths,Cnr Princes Hwy And Waratah St,Engadine,2233,-34.07,151.01
Woolworths,Cnr Park & Cross Sts,Hurstville,2220,-33.97,151.1
Woolworths,Cnr Marco And Polo Aves,Revesby,2212,-33.95,151.02
Woolworths,"Southgate Shop. Ctr, Cnr Princes Hwy And Port Hacking Rd",Sylvania,2224,-34,151.1
Woolworths,Cnr President Ave And High St,Caringbah,2229,-34.04,151.12
Woolworths,84D Roberts Ave,Mortdale,2223,-33.97,151.08
Woolworths,"Miranda Fair Shop. Ctr, 600 The Kingsway",Miranda,2228,-34.03,151.1
Woolworths,Carlingford Ct Pennant Hills Rd,Carlingford,2118,-33.78,151.05
Woolworths,"Macquarie Shop. Ctr, Cnr Waterloo And Herring Rds",North Ryde,2113,-33.8,151.13
Woolworths,"Eastwood Centre, 160 Rowe St",Eastwood,2122,-33.79,151.08
Woolworths,2 The Comenarra Parkway,Thornleigh,2120,-33.74,151.07
Woolworths,"Westfield Shop. Ctr, Cnr Pacific Hwy And Edgeworth David Ave",Hornsby,2077,-33.69,151.11
Woolworths,Cnr Devlin St And Blaxland Rd,Ryde,2112,-33.8,151.1
Woolworths,14 Anthony Rd,West Ryde,2114,-33.8,151.08
Woolworths,Cnr of Hannah St and Beecroft Rd,Beecroft,2119,-33.75,151.06
Woolworths,Betty Cuthbert Ave,Ermington,2115,-33.81,151.05
Woolworths,"Shop 17, Cherrybrook Village, Shepherds Dr",Cherrybrook,2126,-33.72,151.04
Woolworths,Cnr Epping And Balaclava Rds,Marsfield,2122,-33.79,151.08
Woolworths,Cnr Longueville Rd And Austin St,Lane Cove,2066,-33.81,151.17
Woolworths,1-7 Rangers Rd,Neutral Bay,2089,-33.83,151.22
Woolworths,43-51 Grosvenor St,Neutral Bay,2089,-33.83,151.22
Woolworths,276 Darling St,Balmain,2041,-33.86,151.18
Woolworths,Cnr Sailors Bay Rd And Eastern VAlly Way,Northbridge,2063,-33.82,151.22
Woolworths,Cnr Park & George St,Sydney,2000,-33.86,151.21
Woolworths,10 Falcon St,Crows Nest,2065,-33.83,151.2
Woolworths,Cnr Kiaora Lane and Kiaora Rd,Double Bay,2028,-33.88,151.24
Woolworths,Cnr Kiaora Lane and Kiaora Rd,Double Bay,2028,-33.88,151.24
Woolworths,"Westfield Shop. Ctr, 530 Oxford St",Bondi Junction,2022,-33.89,151.25
Woolworths,12 Lagoon St,Narrabeen,2101,-33.7,151.28
Woolworths,"Forestway Shop. Ctr, Cnr Russell Ave And Forest Way",Frenchs Forest,2086,-33.75,151.23
Woolworths,"St Ives Shop. Vge,Cnr Mona Vale Rd And Memorial Ave",St Ives,2075,-33.73,151.16
Woolworths,808 Pacific Hwy,Gordon,2072,-33.76,151.16
Woolworths,56 - 58 Glen St,Belrose,2085,-33.74,151.21
Woolworths,Pittwater Rd,Brookvale,2100,-33.77,151.25
Woolworths,37 Howard Avenue,Dee Why,2099,-33.74,151.28
Woolworths,17 - 31 Roseberry St,Balgowlah,2093,-33.79,151.26
Woolworths,Warriewood Sq Cnr Jacksons And Boondale Rd,Warriewood,2102,-33.69,151.3
Woolworths,74 Old Barenjoey Rd,Avalon,2107,-33.64,151.33
Woolworths,25-29 Park St,Mona Vale,2103,-33.68,151.3
Woolworths,"Bateau Bay Sq, 12 Bay Village Rd",Bateau Bay,2261,-33.38,151.48
Woolworths,1 Figtree Boulevard,Wadalba,2259,-33.27,151.4
Woolworths,40-46 William St,Gosford,2250,-33.11,151.14
Woolworths,Cobbs Rd,Tuggerah,2259,-33.27,151.4
Woolworths,"Peninsula Plaza, 63 Blackwall Rd",Woy Woy,2256,-33.5,151.33
Woolworths,Karalta Rd,Erina,2250,-33.11,151.14
Woolworths,Crn Of West And Trafalgar St,Umina,2257,-33.51,151.34
Woolworths,Tall Timbers Rd,Lake Munmorah,2259,-33.27,151.4
Woolworths,Parsons Rd,Lisarow,2250,-33.11,151.14
Woolworths,"Lake Haven Shopping, Centre Lake Haven Dr",Lake Haven,2263,-33.27,151.54
Woolworths,Cnr Wilson Rd And Rosalind St,Mt Hutton,2290,-33,151.69
Woolworths,Cnr Main And Lake Rds,Glendale,2285,-32.93,151.66
Woolworths,Cnr Park Ave And Northcott Dr,Kotara,2289,-32.93,151.73
Woolworths,Cnr Macquarie And Main Rds,Cardiff,2285,-32.93,151.66
Woolworths,18 Josephson St,Swansea,2281,-33.08,151.65
Woolworths,Charlestown Sq Canberra St,Charlestown,2290,-33,151.69
Woolworths,Cnr Macquarie & Singleton St,Belmont,2280,-33.04,151.66
Woolworths,Cnr Pemell St And Brighton Aves,Toronto,2283,-33.06,151.58
Woolworths,"Crn Dora, Doyalson And Yambo St",Morisset,2264,-33.1,151.55
Woolworths,Cnr Maitland Rd And Valencia St,Mayfield,2304,-32.88,151.75
Woolworths,Blue Gum Rd,Jesmond,2299,-32.9,151.69
Woolworths,39-41 Port Stephens Cnr Glenelg St,Raymond Terrace,2324,-32.67,151.81
Woolworths,Bagnalls Beach Rd,Salamander Bay,2317,-32.72,152.08
Woolworths,Cnr Port Stephens And Bourke Sts MarketPl,Raymond Terrace,2324,-32.67,151.81
Woolworths,23 Steel St,Newcastle West,2302,-32.92,151.76
Woolworths,39-47 Ferodale Rd,Medowie,2318,-32.77,151.85
Woolworths,3 Angophora Dr,Warabrook,2304,-32.88,151.75
Woolworths,Cnr Stockton St & Donald St,Nelson Bay,2315,-32.72,152.11
Woolworths,"Cessnock Plaza, Cnr Keene & Cooper St",Cessnock,2325,-32.84,151.38
Woolworths,"Pender Pl Shop. Ctr, Cnr Church & Elgin St",Maitland,2320,-32.69,151.53
Woolworths,1 Gowrie St,Singleton,2330,-32.51,150.86
Woolworths,"Stockland Centre, 1 Molly Morgan Dr",East Maitland,2323,-32.77,151.6
Woolworths,Cnr Alexandra Ave And Hillview St,Rutherford,2320,-32.69,151.53
Woolworths,Cnr Brook & Sowerby St,Muswellbrook,2333,-32.39,150.47
Woolworths,35 Main St,Scone,2337,-31.99,151.12
Food For Less,Cnr Lawson & Newton St,Beresfield,2322,-32.8,151.66
Woolworths,Cnr Aberglasslyn and McKeachie Dr,Aberglasslyn,2320,-32.69,151.53
Woolworths,119 - 129 Conadilly St,Gunnedah,2380,-30.8,150.2
Woolworths,35 Dalgarno St,Coonabarabran,2357,-31.51,149.79
Woolworths,Cnr William And Denne St,Tamworth,2340,-30.96,150.83
Woolworths,Cnr Jessie And Beardy Sts,Armidale,2350,-30.24,152.01
Woolworths,181-189 Maitland St,Narrabri,2390,-30.6,149.97
Woolworths,215 Balo St,Moree,2400,-29.32,149.81
Woolworths,502 - 504 Peel St,Tamworth,2340,-30.96,150.83
Woolworths,Cnr Pacific Hwy And Park Beach Rd,Coffs Harbour,2450,-30.34,153.07
Woolworths,"Centro Shop. Ctr, Toormina Rd",Toormina,2452,-30.34,153.08
Woolworths,7 Park Ave,Coffs Harbour,2450,-30.34,153.07
Woolworths,Cnr Wentworth And Grey Sts,Glen Innes,2370,-29.64,151.96
Woolworths,Cnr Fraser And Back Sts,Nambucca Heads,2448,-30.62,153
Woolworths,"Cnr Pacific Hwy, Pullen & Mackay Sts",Woolgoolga,2456,-30.06,153.19
Woolworths,Cnr Vivian And Sweaney Sts,Inverell,2360,-29.84,151.04
Woolworths,Cnr Boundary St and Giinagay Way,Macksville,2447,-30.8,152.73
Woolworths,42 Duke St,Grafton,2460,-29.05,152.59
Woolworths,Cnr Forth And Smith Sts,Kempsey,2440,-31.06,152.77
Woolworths,Cnr The Lakes Way And Breese Pde,Forster,2428,-32.35,152.54
Woolworths,Cnr Bay And Park Sts,Port Macquarie,2444,-31.4,152.85
Woolworths,Cnr Albert Stokes And Manning Sts,Taree,2430,-32.07,152.54
Woolworths,10 Botanic Dr,Lakewood,2443,-31.58,152.74
Woolworths,Lot 2 Ocean Dr,Lake Cathie,2445,-31.59,152.84
Woolworths,111 - 115 Church St,Gloucester,2422,-31.97,152.07
Woolworths,Cnr Peel and Kent St,Tuncurry,2428,-32.35,152.54
Woolworths,"Atherton Shop. Vge, Cook St",Atherton,4883,-17.27,145.47
Woolworths,103 Abbott St,Cairns,4870,-16.88,145.75
Woolworths,"Stocklands Shoppingtown, 537 Mulgrave Rd",Earlville,4870,-16.88,145.75
Woolworths,63 Front St,Mossman,4873,-16.37,145.38
Woolworths,106 Barnard Dr,Mt Sheridan,4868,-16.96,145.73
Woolworths,"Festival Fair Shop. Ctr, 1 Koch St",Manunda,4870,-16.88,145.75
Woolworths,Cnr Redlynch Connection And Larsen Rd,Redlynch,4870,-16.88,145.75
Woolworths,Cnr Captain Cook and Kennedy Hwys,Smithfield,4878,-16.84,145.71
Woolworths,Cnr Central Ave and Kerr Point Dr,Weipa,4874,-12.66,141.85
Woolworths,Cnr Woolcock St And Kings Rd,Pimlico,4812,-19.27,146.78
Woolworths,124 Charters Towers Rd,Hermit Park,4812,-19.27,146.78
Woolworths,29 Ann St,Ingham,4850,-18.47,145.89
Woolworths,Cnr Mcgowan Dr And Rankin St,Innisfail,4860,-17.56,146
Woolworths,38-40 Dickinson St,Wongaling Beach ,4852,-17.83,146.1
Woolworths,20-38 Main St,Burdell,4818,-19.2,146.66
Woolworths,393-399 Flinders St,Townsville,4810,-19.25,146.8
Woolworths,Cnr Nathan St And Fulham Rd,Vincent,4814,-19.3,146.76
Woolworths,28 Palm Dr,Deeragun,4818,-19.2,146.66
Woolworths,64-70 Queen St,Ayr,4807,-19.55,147.44
Woolworths,Cnr Richmond And The Soldier Rds,Bowen,4805,-20.38,147.89
Woolworths,Gill St,Charters Towers,4820,-20.08,146.25
Woolworths,2-30 Lakeside Dr,Idalia,4811,-19.32,146.82
Woolworths,148 Bamford Lane,Kirwan,4817,-19.33,146.6
Woolworths,Cnr Isa & Miles St,Mount Isa,4825,-21.16,149.1
Woolworths,310-330 Ross River Rd,Aitkenvale,4814,-19.3,146.76
Woolworths,1225 Riverway Dr,Rasmussen,4815,-19.33,146.73
Woolworths,85 Burnda St,Thuringowa,4817,-19.33,146.6
Woolworths,13 Hervey Range Rd,Kirwan,4817,-19.33,146.6
Woolworths,Cnr Shute Harbour Rd & Waterson Way,Airlie Beach,4802,-20.27,148.72
Woolworths,41-45 Oak St,Andergrove,4740,-21.16,149.1
Woolworths,"Caneland Shop. Ctr, ManGr Rd",Mackay,4740,-21.16,149.1
Woolworths,8-28 Galbraith Park Dr,Cannonvale,4802,-20.27,148.72
Woolworths,213 - 247 Anzac Ave,Marian,4753,-21.12,148.89
Woolworths,54A Philip St,North Mackay,4740,-21.16,149.1
Woolworths,Cnr Broadsound & Boundary Rds,South Mackay,4740,-21.16,149.1
Woolworths,93 Main St,Proserpine,4800,-20.58,148.42
Woolworths,10 Eimeo Rd,Rural View,4740,-21.16,149.1
Woolworths,4-20 Broad St,Sarina,4737,-21.45,149.29
Woolworths,8 Creek St,Walkerston,4751,-21.19,149.03
Woolworths,Cnr Caroline And Upper Dawson Rd,Rockhampton,4700,-23.39,150.5
Woolworths,12 Blain St,Blackwater,4717,-23.59,148.88
Woolworths,51-57 Hospital Rd,Emerald,4720,-23.53,148.16
Woolworths,Cnr Capricorn Hwy & Codenwarra Rd,Emerald East,4720,-23.53,148.16
Woolworths,1-19 McLaughlin St,Gracemere,4702,-24.33,149.78
Woolworths,"Rockhampton Stockland Shop. Ctr, Yaamba Rd",Rockhampton,4701,-23.36,150.52
Woolworths,222 Musgrave St,Rockhampton North,4701,-23.36,150.52
Woolworths,810 Yaamba Rd,Parkhurst,4702,-24.33,149.78
Woolworths,42 Park St,Yeppoon,4703,-23.11,150.7
Woolworths,Cnr Davidson & Bargara Rd,Bargara,4670,-24.84,152.02
Woolworths,Cnr Gladstone & Kariboe St,Biloela,4715,-24.4,150.51
Woolworths,"Boyne Plaza, Cnr Wyndham Ave And Centenary Dr",Boyne Island,4680,-23.86,151.27
Woolworths,Cnr Maryborough & George St,Bundaberg,4670,-24.84,152.02
Woolworths,111-115 Churchill St,Childers,4660,-25.2,152.33
Woolworths,184 Goondoon St,Gladstone,4680,-23.86,151.27
Woolworths,Cnr Dawson Hwy And Phillip St,Gladstone,4680,-23.86,151.27
Woolworths,550 Kirkwood Rd,Kirkwood,4680,-23.86,151.27
Woolworths,Takalvan St,Bundaberg,4670,-24.84,152.02
Woolworths,Cnr Nautilus And Queen Elizabeth Drs,Cooloola Cove,4580,-26.01,153.06
Woolworths,Cnr Ibis Bvd And Maryborough Rd,Eli Waters,4655,-25.35,152.89
Woolworths,114 River Rd,Gympie,4570,-26.35,152.67
Woolworths,Cnr Ramsey Rd & Woolgar Rd,Gympie,4570,-26.35,152.67
Woolworths,27 Torquay Rd,Pialba,4655,-25.35,152.89
Woolworths,280-294 Adelaide St,Maryborough,4650,-25.47,152.66
Woolworths,"Noosa Civic, Cnr Eenie Creek Rd And Walter Hay Dr",Noosa Heads,4567,-26.43,153.11
Woolworths,24 Gibson Rd,Noosaville,4566,-26.4,153.06
Woolworths,94 Poinciana Ave,Tewantin,4565,-26.29,152.99
Woolworths,119 Elizabeth St,Urangan,4655,-25.35,152.89
Woolworths,"Buderim Market Pl, Burnett St",Buderim,4556,-26.69,153.05
Woolworths,20 Bowman Rd,Caloundra,4551,-26.78,153.11
Woolworths,18 University Way,Sippy Downs,4556,-26.69,153.05
Woolworths,21 South Coolum Rd,Coolum Beach,4573,-26.53,153.09
Woolworths,750 Nicklin Way,Currimundi,4551,-26.78,153.11
Woolworths,Cnr Point Cartwright Dr And Nicklin Way,Buddina,4575,-26.75,153.12
Woolworths,Cnr Ocean St And Horton Pde,Maroochydore,4558,-26.66,153.1
Woolworths,154-164 Horton Pde,Maroochydore,4558,-26.66,153.1
Woolworths,158-170 Karawatha Dr,Buderim,4557,-26.68,153.12
Woolworths,Ann St,Nambour,4560,-26.62,153.04
Woolworths,44 Pelican Waters Bvd,Pelican Waters,4551,-26.78,153.11
Woolworths,Cnr Sunderland Dr & Botany Cres,Banksia Beach,4507,-27.05,153.14
Woolworths,Peachester Rd,Beerwah,4519,-26.86,152.96
Woolworths,54 Hornsby Rd,Bongaree,4507,-27.05,153.14
Woolworths,167 Station Rd,Burpengary,4505,-27.17,152.95
Woolworths,"62 Morayfield Rd, Cnr Market Dr",Morayfield,4510,-27.13,153.05
Woolworths,1-21 Pettigrew St,Caboolture,4510,-27.13,153.05
Woolworths,2 Bunya St,Maleny,4552,-26.78,152.89
Woolworths,165-175 Morayfield Rd,Morayfield,4506,-27.15,152.86
Woolworths,312-344 Morayfield Rd,Morayfield,4506,-27.15,152.86
Woolworths,212-226 Young Rd,Narangba,4504,-27.19,152.93
Woolworths,Cnr George And Archer Sts,Woodford,4514,-26.85,152.72
Woolworths,154 Barrett St,Bracken Ridge,4017,-27.33,153.03
Woolworths,"Deception Bay MarketPl, Cnr Deception Bay Rd And Bay Ave",Deception Bay,4508,-27.2,153.03
Woolworths,1473 Anzac Ave,Kallangur,4503,-27.23,152.98
Woolworths,Cnr Anzac Ave & Boardman St,Kippa Ring,4021,-27.23,153.09
Woolworths,Cnr Oxley And Baynes Sts,Margate,4019,-27.26,153.08
Woolworths,1 North Lakes Dr,North Lakes,4509,-27.23,153.02
Woolworths,Dayboro Rd,Petrie,4502,-27.27,152.98
Woolworths,Cnr Anzac Ave And Sutton St,Redcliffe,4020,-27.23,153.12
Woolworths,763 Deception Bay Rd,Rothwell,4022,-27.21,153.05
Woolworths,"Westfield Shop. Ctr, Gympie Rd",Strathpine,4500,-27.29,152.96
Woolworths,Cnr Old Northern And Samsonvale Rds,Warner,4500,-27.29,152.96
Woolworths,Cnr Old Northern Rd And Albany Forest Dr,Albany Creek,4035,-27.35,152.97
Woolworths,59 Albany Creek Rd,Aspley,4034,-27.36,153.02
Woolworths,Osborne Rd,Mitchelton,4053,-27.41,152.98
Woolworths,Cnr Gympie And Beams Rds,Carseldine,4034,-27.36,153.02
Woolworths,Banfield Link Rd,Chermside,4032,-27.39,153.03
Woolworths,725 Webster Rd,Chermside,4032,-27.39,153.03
Woolworths,640 South Pine Rd,Brendale,4500,-27.29,152.96
Woolworths,40 Woolworths St,Everton Park,4053,-27.41,152.98
Woolworths,Cnr Samford And Settlement Rds,Keperra,4054,-27.4,152.96
Woolworths,97 Flockton St,Everton Park,4053,-27.41,152.98
Woolworths,"Lot 8, Bowser Pde",Sandgate,4017,-27.33,153.03
Woolworths,188 Nudgee Road,Ascot,4007,-27.43,153.06
Woolworths,16 AshGr Ave,Ashgrove,4060,-27.45,152.99
Woolworths,279 Tuffnell Rd,Banyo,4014,-27.38,153.08
Woolworths,1 Airport Dr,Brisbane Airport,4007,-27.43,153.06
Woolworths,259 Queen St,Brisbane,4000,-27.47,153.03
Woolworths,Skyring Tce,Newstead,4006,-27.44,153.04
Woolworths,Cnr Buckland And Sandgate Rds,Nundah,4012,-27.4,153.06
Woolworths,Latrobe Tce,Paddington,4064,-27.47,153
Woolworths,365 Turbot St,Spring Hill,4000,-27.47,153.03
Woolworths,Stafford Rd,Stafford,4053,-27.41,152.98
Woolworths,Beams Rd,Taigum,4018,-27.35,153.03
Woolworths,16-20 Bell St,Chinchilla,4413,-26.71,150.55
Woolworths,Cnr Anzac Ave And James St,Toowoomba,4350,-27.62,151.77
Woolworths,"Dalby Central Shop. Ctr, Lot 70 Marble St",Dalby,4405,-27.19,151.4
Woolworths,66 Highfields Rd,Highfields,4352,-28.58,151.8
Woolworths,445-455 Hume St,Toowoomba,4350,-27.62,151.77
Woolworths,29-45 Alford St,Kingaroy,4610,-26.76,151.63
Woolworths,Cnr Wyndham And Bowen Sts,Roma,4455,-27.12,148.62
Woolworths,48 Brisbane St,Drayton,4350,-27.62,151.77
Woolworths,Cnr of Margaret St & Dent St,Toowoomba,4350,-27.62,151.77
Woolworths,Cnr Hooper And Erin Sts,Wilsonton,4350,-27.62,151.77
Woolworths,Cnr Brisbane St And Station Rd,Booval,4304,-27.63,152.8
Woolworths,Hunter St,Brassall,4305,-27.6,152.77
Woolworths,1455 Brisbane VAlly Hwy,Fernvale,4306,-27.64,152.7
Woolworths,Cnr Pine St And The Tce,Ipswich,4305,-27.6,152.77
Woolworths,122-126 Yandilla St,Pittsworth,4356,-27.57,151.45
Woolworths,3 Gehrke Rd,Plainland,4341,-27.65,152.33
Woolworths,Cnr James And Burke Sts,Toowoomba,4350,-27.62,151.77
Woolworths,Cnr Lock And High Sts,Stanthorpe,4380,-28.61,151.9
Woolworths,"Rose City Shop. Ctr, Cnr Grafton And Guy Sts",Warwick,4370,-28.2,151.95
Woolworths,512-514 Warwick Rd,Yamanto,4305,-27.6,152.77
Woolworths,2 Tournament Dr,Brookwater,4300,-27.67,152.89
Woolworths,157 Collingwood Dr,Collingwood Park,4301,-27.61,152.86
Woolworths,Cnr Monier Rd And Bellwood St,Darra,4076,-27.57,152.95
Woolworths,8 Smiths Rd,Goodna,4300,-27.67,152.89
Woolworths,39-51 Junction Rd,Karalee,4306,-27.64,152.7
Woolworths,Cnr Beaudesert Rd And Durack St,Moorooka,4105,-27.53,153.03
Woolworths,"Mt Ommaney Shop. Ctr, Cnr Dandenong Rd And Centenary Hwy",Mount Ommaney,4074,-27.56,152.93
Woolworths,133 Oxley Station Rd,Oxley,4075,-27.54,152.98
Woolworths,Cnr Redbank Plains And Keidges Rds,Redbank Plains,4301,-27.61,152.86
Woolworths,686 Sherwood Rd,Sherwood,4075,-27.54,152.98
Woolworths,Cnr Finucane Rd And CambRdge Dr,Alexandra Hills,4161,-27.52,153.22
Woolworths,2-12 Mary Pleasant Dr,Birkdale,4159,-27.5,153.21
Woolworths,38-62 Moreton Bay Rd,Capalaba,4157,-27.53,153.19
Woolworths,Cnr Redland Bay And Mount Cotton Rds,Capalaba,4157,-27.53,153.19
Woolworths,Middle St,Cleveland,4163,-27.53,153.26
Woolworths,11 Burnett St,Manly West,4179,-27.47,153.18
Woolworths,2-34 Bunker Rd,Victoria Point,4165,-27.62,153.24
Woolworths,"Cnr Colburn Ave, Cleveland - Redland Bay Rd",Victoria Point,4165,-27.62,153.24
Woolworths,"Wynnum Plaza Shop. Ctr, 2021 Wynnum Rd",Wynnum West,4178,-27.42,153.16
Woolworths,145 Florence St,Wynnum,4178,-27.42,153.16
Woolworths,504 Ipswich Rd,Annerley,4103,-27.51,153.03
Woolworths,Cnr Oxford And Duke St,Bulimba,4171,-27.46,153.07
Woolworths,264 Ipswich Rd,Woolloongabba,4102,-27.5,153.04
Woolworths,Cnr Ara And Thomas St,Camp Hill,4152,-27.49,153.08
Woolworths,1145 Wynnum Rd,Cannon Hill,4170,-27.47,153.1
Woolworths,"Carindale Shop. Ctr, Cnr Creek Rd And Winstanley St",Carindale,4152,-27.49,153.08
Woolworths,41 Harries Rd,Coorparoo,4151,-27.5,153.06
Woolworths,Cnr Moggill Rd and Stamford Rd,Indooroopilly,4068,-27.51,152.98
Woolworths,"Kenmore Tavern Plaza, Moggill Rd",Kenmore,4069,-27.49,152.9
Woolworths,Cnr Wynnum And Jnc Rds,Morningside,4170,-27.47,153.1
Woolworths,"Acacia Market Pl, 1150 Beaudesert Rd",Acacia Ridge,4110,-27.59,153.03
Woolworths,2625 Beaudesert Rd,Calamvale,4116,-27.62,153.05
Woolworths,678 Compton Rd,Calamvale,4116,-27.62,153.05
Woolworths,261 Warrigal Rd,Eight Mile Plains,4113,-27.58,153.09
Woolworths,Cnr Logan Rd And Kessels Rd,Upper Mt Gravatt,4122,-27.54,153.1
Woolworths,20 Kittyhawke Ave,Inala,4077,-27.61,152.98
Woolworths,"Mt Gravatt Plaza, Cnr Creek And Logan Rds",Mt Gravatt,4122,-27.54,153.1
Woolworths,495 Archerfield Rd,Richlands,4077,-27.61,152.98
Woolworths,342 McCullough St,Sunnybank,4109,-27.57,153.08
Woolworths,661 Compton Rd,Sunnybank Hills,4109,-27.57,153.08
Woolworths,125-139 Brisbane St,Beaudesert,4285,-27.9,152.94
Woolworths,"Grand Plaza, Cnr Browns Plains Rd And Mt Lindsay Hwy",Browns Plains,4118,-27.66,153.04
Woolworths,Browns Plains Rd,Browns Plains,4118,-27.66,153.04
Woolworths,Cnr College Ave And Forest Lake Bvd,Forest Lake,4078,-27.61,152.95
Woolworths,Cnr Pub Lane And Teviot Rd,Greenbank,4124,-27.69,153.02
Woolworths,654-682 Cusack Lane,Jimboomba,4280,-27.83,153.03
Woolworths,2-24 Wembley Rd,Logan Central,4114,-27.66,153.12
Woolworths,Cnr Mt Lindsay Hwy And Park Rdge Rd,Park Ridge,4125,-27.75,153.03
Woolworths,1 Main St,Springfield Central,4300,-27.67,152.89
Woolworths,114-118 George St,Beenleigh,4207,-27.72,153.27
Woolworths,2-16 Magellan Rd,Springwood,4127,-27.64,153.15
Woolworths,Cnr Bryants Rd & Beenleigh-Redland Bay Rd,Cornubia,4130,-27.69,153.28
Woolworths,17 Gardiner Rd,Holmview,4207,-27.72,153.27
Woolworths,Cnr North & Albert Sts,Logan Village,4207,-27.72,153.27
Woolworths,3828-3846 Pacific Hwy,Shailer Park,4129,-27.69,153.18
Woolworths,Cnr Browns Plains Rd & Fifth Ave,Marsden,4132,-27.69,153.09
Woolworths,8-10 Logandowns Dr,Meadowbrook,4131,-27.68,153.13
Woolworths,34 Fitzgerald Ave,Springwood,4127,-27.64,153.15
Woolworths,Cnr Logan Rd And Beenleigh Rd,Underwood,4119,-27.59,153.11
Woolworths,Cnr Foxwell Rd & Oakey Creek Rd,Coomera,4209,-27.87,153.32
Woolworths,Cnr Old Coach And Days Rds,West Coomera,4209,-27.87,153.32
Woolworths,121 Foxwell Rd,Coomera Town Centre,4209,-27.87,153.32
Woolworths,Cnr Oxley Rd And Gold Coast Hwy,Biggera Waters,4216,-27.93,153.4
Woolworths,Town Centre Dr,Helensvale,4212,-27.92,153.33
Woolworths,1 Marina Quays Blvd,Hope Island,4212,-27.92,153.33
Woolworths,19-21 Peachey Rd,Ormeau,4208,-27.75,153.26
Woolworths,Cnr Tamborine/Oxenford Rd And Old Pacific Hwy,Oxenford,4210,-27.94,153.23
Woolworths,1 Pitcairn Way,Pacific Pines,4211,-28.03,153.28
Woolworths,28 Dixon Dr,Pimpama,4209,-27.87,153.32
Woolworths,Cnr Bayview St And Lae Dr,Runaway Bay,4215,-27.97,153.42
Woolworths,Cnr Cotlew St And Currumburra Rd,Ashmore,4214,-27.94,153.37
Woolworths,Scarborough St,Southport,4215,-27.97,153.42
Woolworths,54 Manchester Rd,Carrara,4209,-27.87,153.32
Woolworths,9 Ferny Ave,Surfers Paradise,4217,-28.01,153.39
Woolworths,Cnr Bermuda And Markeri Sts,Mermaid Waters,4218,-28.03,153.43
Woolworths,7-27 Cayuga St,Nerang,4211,-28.03,153.28
Woolworths,"The Oasis Shop. Ctr, Cnr Charles Aves And Surf Pde",Broadbeach,4218,-28.03,153.43
Woolworths,2-30 Hooker Bvd,Broadbeach,4218,-28.03,153.43
Woolworths,Cnr Von Itzstein St & Knowledge St,Southport,4215,-27.97,153.42
Woolworths,Cnr Ferry Rd And Benowa St,Southport,4215,-27.97,153.42
Woolworths,2 Cavill Ave,Surfers Paradise,4217,-28.01,153.39
Woolworths,West Burleigh Rd,Burleigh Heads,4220,-28.09,153.45
Woolworths,"Level 1,The Strand at Coolangatta, 72-80 Marine Pde",Coolangatta,4225,-28.16,153.51
Woolworths,13-31 Guineas Creek Road,Elanora,4221,-28.14,153.47
Woolworths,"Mudgeeraba Market Shop. Ctr, Cnr Railway St And Swan Lane",Mudgeeraba,4213,-28.14,153.32
Woolworths,155 Nineteenth Ave,Elanora,4221,-28.14,153.47
Woolworths,1 Kingsmore Bvd,Reedy Creek,4227,-28.11,153.4
Woolworths,"Robina Town Centre, Robina Town Centre Dr",Robina,4230,-28.08,153.39
Woolworths,"Robina Town Centre, Robina Town Centre Dr Level 2",Robina,4230,-28.08,153.39
Woolworths,54 Pacific Hwy,Tweed Heads South,2485,-28.18,153.54
Woolworths,Cnr Wharf And Bay St,Tweed Heads,2485,-28.18,153.54
Woolworths,84 Kerr St,Ballina,2478,-28.87,153.56
Woolworths,82-96 River St,Ballina,2478,-28.87,153.56
Woolworths,106 Jonson St,Byron Bay,2481,-28.72,153.59
Woolworths,39-45 Tweed Coast Rd,Cabarita Beach,2488,-28.33,153.54
Woolworths,165 Canterbury St,Casino,2470,-28.73,152.8
Woolworths,2 Simeoni Dr,Goonellabah,2480,-28.61,153.04
Woolworths,22-26 Pearl St,Kingscliff,2487,-28.3,153.57
Woolworths,Cnr Conway And Carrington Sts,Lismore,2480,-28.61,153.04
Woolworths,Cnr Brewster And Mckenzie Sts,Lismore,2480,-28.61,153.04
Woolworths,28-32 Station Rd,Mullumbimby,2482,-28.61,153.44
Woolworths,Taylors Rd,Aberfoyle Park,5159,-35.08,138.59
Woolworths,36-38 Hartley St,Alice Springs,870,-12.44,130.84
Woolworths,"Arkaba Shop. Ctr, Fullarton Rd",Fullarton ,5063,-34.94,138.62
Woolworths,CNR Chungwah Tce and Lanbrick Ave,Bakewell,810,-12.38,130.88
Woolworths,14 Vaughan Tce,Berri,5343,-34.29,140.6
Woolworths,360 Shepherds Hill Rd,Blackwood,5051,-35.02,138.62
Woolworths,"Blakes Crossing Town Centre, Main Tce",Blakeview,5114,-34.67,138.67
Woolworths,Cnr South Rd and Ashwin Pde,Torrensville,5031,-34.93,138.56
Woolworths,437 - 441 Brighton Road,Brighton,5048,-35.02,138.52
Woolworths,"7 Westside Plaza, Galena St",Broken Hill,2880,-31.96,141.47
Woolworths,Trower Rd,Casuarina,810,-12.38,130.88
Woolworths,"Centre Plaza, Cnr Fifteenth St And Deakin Ave",Mildura,3500,-34.18,142.16
Woolworths,"Shop 1, Christies Beach Shop. Ctr, 76 Beach Rd",Christies Beach,5165,-35.14,138.47
Woolworths,CNR Old North Rd and Wright St,Clare,5453,-33.84,138.58
Woolworths,54 Beach Rd,Noarlunga,5168,-35.14,138.49
Woolworths,445 Stuart Hwy,Coolalinga,839,-12.48,131.03
Woolworths,366 Goodwood Rd,Cumberland Park,5041,-34.98,138.59
Woolworths,Cnr Cavenagh & Whitfield St,Darwin,800,-12.8,130.96
Woolworths,"Elizabeth City Centre, Elizabeth Way",Elizabeth,5112,-34.71,138.67
Woolworths,185 Findon Rd,Findon,5023,-34.91,138.53
Woolworths,"1 Roystonea Ave, Yarrawonga",Palmerston,830,-12.49,130.97
Woolworths,2 Commercial Lane,Gawler,5118,-34.64,138.77
Woolworths,575 North East Rd,Gilles Plains,5086,-34.86,138.66
Woolworths,Cnr Jetty And Brighton Rds,Glenelg,5045,-34.98,138.52
Woolworths,Cnr The Golden Way And The Gr Way,Golden Grove,5125,-34.79,138.7
Woolworths,1495 Golden Gr Rd,Golden Grove,5125,-34.79,138.7
Woolworths,Cnr Hutchinson & Coddington St,Goolwa,5214,-35.45,138.77
Woolworths,Endeavour Sq,Nhulunbuy,880,-12.38,130.87
Woolworths,"Sh T17, Hallett Cove Shop. Ctr, 246 Lonsdale Rd",Hallett Cove,5158,-35.08,138.52
Woolworths,Cnr Sir Donald Bradman Dr And Bagot Ave,Hilton,5033,-34.93,138.56
Woolworths,Winzor St,Salisbury Downs,5108,-34.76,138.61
Woolworths,2  Challoner Cct,Humpty Doo,836,-12.53,131.1
Woolworths,1 Forster St,Kadina,5554,-34.03,137.67
Woolworths,37 Kalymnos Dr,Karama,812,-12.4,130.91
Woolworths,5 Katherine Tce,Katherine,850,-14.46,132.26
Woolworths,470 Torrens Rd,Kilkenny,5009,-34.9,138.56
Woolworths,"Hibiscus Shoppingtown, 8 Leanyer Dr",Leanyer,812,-12.4,130.91
Woolworths,1 Martha St,Loxton,5333,-34.35,140.6
Woolworths,9 Lower Portrush Rd,Marden,5070,-34.89,138.64
Woolworths,"Marion Shop. Ctr, 297 Diagonal Rd",Oaklands Park,5046,-35.01,138.55
Woolworths,Cnr Kensington Rd And Tusmore Ave,Marryatville,5068,-34.93,138.65
Woolworths,Cnr University Pde & Main St,Mawson Lakes,5095,-34.82,138.62
Woolworths,95-103 Langtree Ave,Mildura,3500,-34.18,142.16
Woolworths,34 Davenport St,Millicent,5280,-37.48,140.01
Woolworths,"Mitcham Shop. Ctr, 119 Belair Rd",Torrens Park,5062,-34.99,138.65
Woolworths,172 Ladywood Dr,Modbury Heights,5092,-34.83,138.69
Woolworths,146 Main South Rd,Morphett Vale,5162,-35.12,138.52
Woolworths,145 Commercial Street East,Mount Gambier,5290,-37.83,140.78
Woolworths,176 Penola Rd,Mount Gambier,5290,-37.83,140.78
Woolworths,5 Walker St,Mt Barker,5251,-35.13,138.89
Woolworths,23-51 South Tce,Murray Bridge,5253,-35.09,139.31
Woolworths,26 Roberston St,Naracoorte,5271,-37.14,140.72
Woolworths,"Newton Village Shop. Ctr, 299 Montacute Rd",Newton,5074,-34.88,138.66
Woolworths,Dick Ward Dr,Nightcliff,810,-12.38,130.88
Woolworths,177 -195 Folland Ave,Northgate,5085,-34.86,138.62
Woolworths,"Northpark Shop. Ctr, 264 Main North Rd",Prospect,5082,-34.9,138.59
Woolworths,2 Wilkinson Rd,Para Hills,5096,-34.79,138.67
Woolworths,68-84 John St,Salisbury,5108,-34.76,138.61
Woolworths,Cnr Byron Bay Dr And Whites Rd,Paralowie,5108,-34.76,138.61
Woolworths,297 Peachey Rd,Munno Para West,5115,-34.64,138.7
Woolworths,25 Tassie St,Port Augusta,5700,-32.73,137.92
Woolworths,27 Liverpool St,Port Lincoln,5606,-34.73,135.87
Woolworths,11 Norman St,Port Pirie,5540,-33.2,138.07
Woolworths,"Renmark Shop. Ctr, Renmark Ave",Renmark,5341,-34.21,140.69
Woolworths,12 - 28 Richardson Pl,Roxby Downs,5725,-30.46,136.88
Woolworths,80-88 Rundle Mall,Adelaide,5000,-34.93,138.6
Woolworths,Cnr Commercial Rd And The Pde,Seaford,5169,-35.2,138.47
Woolworths,lot 209 Crn Grand Bvd & Prow Dr,Seaford Meadows,5169,-35.2,138.47
Woolworths,Lot 106 Watterloo Crn Rd,Burton,5110,-34.77,138.59
Woolworths,28 Mount Barker Rd,Stirling,5152,-34.97,138.7
Woolworths,Cnr Dawson & Donald St,Strathalbyn,5255,-35.32,139
Woolworths,76 North East Rd,Modbury,5092,-34.83,138.69
Woolworths,204 Unley Rd,Unley,5061,-34.96,138.61
Woolworths,27 Torrens Rd,Victor Harbor,5211,-35.53,138.53
Woolworths,18 Old Port Wakefield Rd,Virginia,5120,-34.66,138.51
Woolworths,1 White St,Waikerie,5330,-34.42,140.04
Woolworths,104 Walkerville Terrace,Walkerville,5081,-34.88,138.62
Woolworths,West Lakes Bvd,West Lakes,5021,-34.87,138.48
Woolworths,18-30 Viscount Slim Ave,Whyalla,5608,-33.03,137.53
Woolworths,193 - 199 Nicolson Ave,Whyalla Norrie,5600,-32.94,137.58
Woolworths,Cnr Pimpala And Odessa Dr,Woodcroft,5162,-35.12,138.52
Woolworths,Cnr Raglan Pde and Russell St,Dennington,3280,-38.36,142.44
Woolworths,26-32 Scallan St,Stawell,3380,-37.16,142.7
Woolworths,Cnr High St And Ingor St,Ararat,3377,-37.28,142.93
Woolworths,2-16 Bromfield St,Colac,3250,-38.34,143.58
Woolworths,Cnr Princes Hwy and Gateway Rd,Warrnambool East,3280,-38.36,142.44
Woolworths,Brown St,Hamilton,3300,-37.88,141.96
Woolworths,95-97B Percy St,Portland,3305,-38.27,141.65
Woolworths,Cnr Wilson & Darlot St,Horsham,3400,-36.71,142.2
Woolworths,9 Cressy St,Camperdown,3260,-38.13,143.1
Woolworths,745-763 Raglan Pde,Warrnambool,3280,-38.36,142.44
Woolworths,90 Centenial Blvd,Curlewis,3222,-38.16,144.56
Woolworths,Brown St,Portarlington,3223,-38.14,144.71
Woolworths,Cnr Wyndham St And Carolanne Dr,Drysdale,3222,-38.16,144.56
Woolworths,Cnr Bellarine Hwy And Wilsons Rd,Newcomb,3219,-38.18,144.38
Woolworths,Cnr Bristol Rd And Walker St,Torquay,3228,-38.33,144.26
Woolworths,Bellarine Hwy,Newcomb,3219,-38.18,144.38
Woolworths,770 Barwon Heads Rd,Armstrong Creek ,3217,-38.2,144.3
Woolworths,Cnr Merrijig Dr and Fischer St,Torquay North,3228,-38.33,144.26
Woolworths,Cnr Kingston Downs Dr And Shell Rd,Ocean Grove,3226,-38.27,144.54
Woolworths,Cnr Bellvue Ave And Roslyn Rd,Highton,3216,-38.18,144.34
Woolworths,Cnr Pioneer Rd And Princes Hwy,Waurn Ponds,3216,-38.18,144.34
Woolworths,50 The Centre Way,Lara,3212,-38.02,144.41
Woolworths,Cnr Aberdeen St And Shannon Ave,Geelong,3220,-38.18,145.11
Woolworths,290-300 Anakie Rd,Norlane,3214,-38.07,144.36
Woolworths,Pakington Strand 95-113 Pakington St,Geelong West,3218,-38.14,144.35
Woolworths,4 High St,Bannockburn,3331,-38.05,144.17
Woolworths,Cnr Bacchus Marsh And Purnell Rds,Corio,3214,-38.07,144.36
Woolworths,4-46 Province Blvd,Highton,3216,-38.18,144.34
Woolworths,Cnr Heaths And Derrimutt Rds,Werribee,3030,-37.97,144.58
Woolworths,Cnr Cherry & Watton St,Werribee,3030,-37.97,144.58
Woolworths,209 Grns Rd,Wyndham Vale,3024,-37.9,144.56
Woolworths,747 Tarneit Rd,Tarneit Gardens,3029,-37.88,144.7
Woolworths,100 Overton Rd,Williams Landing,3027,-37.86,144.76
Woolworths,Cnr Hogan And Derrimut Rds,Hoppers Crossing,3029,-37.88,144.7
Woolworths,"Borrack Sq, Cnr Mcarthurs And Millers Rds",Altona North,3025,-37.84,144.86
Woolworths,Cnr Old Geelong And Morris Rd,Hoppers Crossing,3029,-37.88,144.7
Woolworths,71 Kororoit Creek Rd,Williamstown,3016,-37.86,144.9
Woolworths,1 Main St,Point Cook,3030,-37.97,144.58
Woolworths,Cnr Sneydes Rd and Boardwal Blvd,Featherbrook,3030,-37.97,144.58
Woolworths,"Sunshine Market Pl, 80 Harvester Rd",Sunshine,3020,-37.78,144.82
Woolworths,227 Ballarat Rd Cnr Ashley St,Braybrook,3019,-37.78,144.86
Woolworths,234-246 High St,Bendigo,3555,-36.83,144.23
Woolworths,116-120 Mitchell St,Bendigo,3550,-36.76,144.28
Woolworths,7-11 Jennings St,Kyneton,3444,-37.09,144.51
Woolworths,16-40 Howard St,Bendigo,3550,-36.76,144.28
Woolworths,"Lansell Plaza, 267-283 High St Kangaroo Flat",Bendigo,3555,-36.83,144.23
Woolworths,150-180 Condon St,Kennington,3550,-36.76,144.28
Woolworths,Cnr Dyson & Remembrance Drv,Alfredton,3350,-37.56,143.82
Woolworths,Cnr Albert & Hertford St,Ballarat,3356,-37.59,143.83
Woolworths,Tuaggra St,Maryborough,3465,-37.07,143.68
Woolworths,Cnr Eastwood & Sharwood St,Ballarat,3350,-37.56,143.82
Woolworths,1201-1205 Howitt St,Wendouree,3355,-37.55,143.82
Woolworths,315 Glenelg Hwy,Delacombe,3356,-37.59,143.83
Woolworths,330 Gillies Street North,Wendouree,3355,-37.55,143.82
Woolworths,25-47 Horne St,Sunbury,3429,-37.58,144.73
Woolworths,Cnr High St And Queen St,Wallan,3756,-37.4,144.8
Woolworths,Cnr Craigieburn Rd & Aitken Blvd,Craigieburn,3064,-37.6,144.94
Woolworths,Cnr David Munro Dr And Somerton Rd,Roxburgh Park,3064,-37.6,144.94
Woolworths,Cnr Craigieburn Rd West And Hanson St,Craigieburn,3064,-37.6,144.94
Woolworths,Cnr Gladstone Park Dr And Mickleham Rd,Gladstone Park,3043,-37.69,144.88
Woolworths,"Town Centre, Pascoe Vale Rd",Broadmeadows,3047,-37.68,144.92
Woolworths,25-39 Louis St,Airport West,3042,-37.71,144.89
Woolworths,Cnr Aitkin St & Grand Bvd,Craigieburn Highlands,3064,-37.6,144.94
Woolworths,Cnr High And Hurtle Sts,Lalor,3075,-37.67,145.02
Woolworths,Cnr Cooper & High St,Epping,3076,-37.64,145.01
Woolworths,Cnr Epping Rd & Lyndarum Dr,Epping North,3076,-37.64,145.01
Woolworths,90 Vineyard Drive ,Sunbury,3429,-37.58,144.73
Woolworths,Cnr Victoria Cross Pde & Kelliher Ave,Wodonga,3690,-36.1,146.82
Woolworths,87-91 Gavan St,Bright,3741,-36.73,146.96
Woolworths,Cnr BRdge Rd And Smythe St,Benalla,3672,-36.55,145.99
Woolworths,45-49 Ovens St,Wangaratta,3677,-36.35,146.3
Woolworths,337-363 Griffith Rd,Lavington,2641,-36.04,146.92
Woolworths,Cnr Swift And David St,Albury,2640,-36.08,146.91
Woolworths,Cnr Elgin Bvd & Hume St,Wodonga,3690,-36.1,146.82
Woolworths,10 Shuter Ave,Thurgoona,2640,-36.08,146.91
Woolworths,68 Sanger St,Corowa,2646,-35.85,146.52
Woolworths,54-58 Punt Rd,Cobram,3644,-35.91,145.69
Woolworths,157-161 Belmore St,Yarrawonga,3730,-36.03,146.08
Woolworths,Cnr William & Wallis St,Seymour,3660,-37.09,145.5
Woolworths,91-101 Mclennan St,Mooroopna,3629,-36.38,145.3
Woolworths,BeveRdge St,Swan Hill,3585,-35.42,143.59
Woolworths,Cnr High & Archer St,Shepparton,3630,-36.36,145.4
Woolworths,Cnr Darling & Nish St,Echuca,3564,-36.13,144.73
Woolworths,Benalla Rd,Shepparton East,3630,-36.36,145.4
Woolworths,Cnr Cobb Hwy And Perricoota Rd,Moama,2731,-35.79,144.63
Woolworths,Cnr Shadforth & Nolan St,Kerang,3579,-35.88,143.87
Woolworths,Union St,Kyabram,3620,-36.31,145.05
Woolworths,117 Acland St,St Kilda,3182,-37.87,144.98
Woolworths,112-114 Wattletree Rd,Malvern,3144,-37.84,145.03
Woolworths,Cnr Lonsdale & Swanston St,Melbourne,3000,-37.81,144.97
Woolworths,63-93 Merchant St,Docklands,3008,-37.81,144.95
Woolworths,113 Cecil St,South Melbourne,3205,-37.93,145.03
Woolworths,459-465 Toorak Rd,Toorak,3142,-37.84,145
Woolworths,670 Chapel St,South Yarra,3141,-36.99,144.06
Woolworths,Cnr Wattle & Cato St,Prahran,3181,-37.85,144.99
Woolworths,Vaughan Terrace & Canning St,North Melbourne ,3051,-37.91,145.06
Woolworths,"Lygon Ct, 368-380 Lygon St",Carlton,3053,-37.78,144.97
Woolworths,243 Smith St,Fitzroy,3065,-37.8,144.98
Woolworths,CNR Murphy & Elizabeth St,Coburg,3058,-37.73,144.96
Woolworths,334 Murray Rd,Preston,3072,-37.74,145.03
Woolworths,Cnr Pratt And Puckle Sts,Moonee Ponds,3039,-37.77,144.92
Woolworths,300-304 Albert St,Brunswick,3056,-37.76,144.94
Woolworths,50 Plenty Rd,Preston South,3072,-37.74,145.03
Woolworths,"Northland Shop. Ctr, 50 Murray Rd",East Preston,3072,-37.74,145.03
Woolworths,"90-106 Sydney Rd, Barkly Sq Shop. Ctr",Brunswick,3056,-37.76,144.94
Woolworths,Cnr Munro & Louisa St,Coburg,3058,-37.73,144.96
Woolworths,313 Victoria St,Abbotsford,3067,-37.8,145
Woolworths,Cnr Glen Huntly Rd And Manchester Gr,Glen Huntly,3163,-37.89,145.06
Woolworths,72-84 Upper Heidelberg Rd,Ivanhoe,3079,-37.77,145.04
Woolworths,451 Lower Heidelberg Road,Heidelberg,3084,-37.74,145.09
Woolworths,Cnr Whitehorse Rd And Mangan St,Balwyn,3103,-37.81,145.08
Woolworths,17 Walpole St,Kew,3101,-37.81,145.04
Woolworths,5-57 Station St,Camberwell,3124,-37.82,145.06
Woolworths,752 Riversdale Rd,Camberwell,3124,-37.82,145.06
Woolworths,11-29 Kokaribb Rd,Carnegie,3163,-37.89,145.06
Woolworths,2/20 Koornang Rd,Carnegie,3163,-37.89,145.06
Woolworths,399 Melton Hwy,Sydenham,3037,-37.72,144.78
Woolworths,200 Rosamond Rd,Maribyrnong,3032,-37.78,144.92
Woolworths,Cnr Neale Rd And Station St,Deer Park,3023,-37.75,144.75
Woolworths,338-390 Racecourse Rd,Kensington,3031,-37.79,144.93
Woolworths,Cnr Melton Hwy And Kings Rd,Sydenham,3037,-37.72,144.78
Woolworths,315-321 Main Rd East,St Albans,3021,-37.75,144.77
Woolworths,Crn Taylors And Calder Park Dr,Taylors Hill,3037,-37.72,144.78
Woolworths,Cnr Melton-Keilor Rd And Sunshine Ave,Taylors Lakes,3038,-37.73,144.81
Woolworths,523-531 High St,Melton,3337,-37.68,144.59
Woolworths,533-555 High St,Melton,3337,-37.68,144.59
Woolworths,"Milleara Mall, Cnr Milleara Rd And Buckley St",East Keilor,3033,-37.74,144.8
Woolworths,Cnr Hoffmans And Keilor Rds,Niddrie,3042,-37.71,144.89
Woolworths,"8 Commercial Road, ",Caroline Sprigs,3023,-37.75,144.75
Woolworths,524 Centre Rd,Bentleigh,3204,-37.92,145.04
Woolworths,105 -111 Balcombe Rd,Mentone,3194,-37.98,145.06
Woolworths,104 Church St,Middle Brighton,3186,-37.91,144.99
Woolworths,Cnr Redholme St And South Rd,Moorabbin,3189,-37.93,145.04
Woolworths,284-286 Highett Rd,Highett,3190,-37.95,145.03
Woolworths,355 Hampton St,Hampton,3188,-37.93,145.03
Woolworths,1239 Nepean Hwy,Cheltenham,3192,-37.96,145.06
Woolworths,89 Centre Dandenong Rd,Dingley Village,3172,-37.97,145.12
Woolworths,Cnr Bourke Rd And Viney St,Clarinda,3169,-37.94,145.1
Woolworths,Cnr Warrigal and Centre Rds,Oakleigh South,3167,-37.93,145.1
Woolworths,"Oakleigh Central Shop. Ctr, Station St",Oakleigh,3166,-37.9,145.08
Woolworths,Shop 1/171 Nepean Hwy,Mentone,3194,-37.98,145.06
Woolworths,317 Cheltenham Rd,Keysborough,3173,-37.99,145.15
Woolworths,211-215 Chapel St,Keysborough,3173,-37.99,145.15
Woolworths,Cnr Marriot Blvd & Thompsons Rd,Lyndhurst,3975,-38.05,145.26
Woolworths,William Thwaittes Blvd,Cranbourne North,3977,-38.21,145.32
Woolworths,Fountain Gate Shop. Ctr - Magid Dr,Narre Warren,3805,-38.02,145.3
Woolworths,Hampton Park Shop. Ctr - 55 Hallam Rd,Hampton Park,3976,-38.03,145.27
Woolworths,Cnr Thompson Rd And South Gippsland Hwy,Cranbourne,3977,-38.21,145.32
Woolworths,1-9 Lyall Rd,Berwick,3806,-38.03,145.34
Woolworths,Cnr Mccrae And Foster St,Dandenong,3175,-38.03,145.18
Woolworths,Crn Naree Warren Rd and Little Croft Ave.,Narre Warren,3805,-38.02,145.3
Woolworths,81-125 Princess Hwy,Dandenong,3175,-38.03,145.18
Woolworths,600 Main St,Mordialloc,3195,-38.03,145.1
Woolworths,100 Hall Rd,Carrum Downs,3201,-38.09,145.19
Woolworths,"Lakeview Shop. Ctr, 92-114 Gladesville Bvd",Patterson Lakes,3197,-38.08,145.12
Woolworths,31-33 Bath St,Chelsea,3196,-38.06,145.12
Woolworths,Cnr Cranbourne Rd And Karingal Dr,Karingal,3199,-38.15,145.12
Woolworths,Cnr Cranbourne Rd And Karingal Dr P.O. End,Karingal,3199,-38.15,145.12
Woolworths,385 Cranbourne - Frankston Rd,Langwarrin,3910,-38.15,145.19
Woolworths,"Centro Cranbourne Park Shop. Ctr, High St",Cranbourne,3977,-38.21,145.32
Woolworths,1s Linsell Bvd,Cranbourne East,3977,-38.21,145.32
Woolworths,"Cnr Linsell Blvd & Selandra Blvd,",Clyde North,3978,-38.15,145.42
Woolworths,Cnr Nepean Hwy & Seaford Rd,Seaford,3198,-38.11,145.16
Woolworths,Cnr Mt Eliza Way And Canadian Bay Rd,Mount Eliza,3930,-38.19,145.08
Woolworths,Cnr Bentons And Dunns Rds,Mornington East,3931,-38.24,145.06
Woolworths,Cnr Main And Cromwell Sts,Mornington,3931,-38.24,145.06
Woolworths,1433 Nepean Hwy,Rosebud,3939,-38.4,144.9
Woolworths,17 Eramosa Rd West,Somerville,3912,-38.2,145.23
Woolworths,96-106 Baxter-Tooradin Rd,Baxter,3911,-38.2,145.16
Woolworths,Cnr Nepean Hwy And Ozone St,Rye,3941,-38.37,144.82
Woolworths,11-23 Victoria St,Hastings,3915,-38.31,145.19
Woolworths,"Bayside Shop. Ctr, Crn Fletcher Rd & Young St",Frankston,3199,-38.15,145.12
Woolworths,991 Nepean Hwy,Rosebud,3939,-38.4,144.9
Woolworths,64 Virginia St,Mount Waverley,3149,-37.88,145.13
Woolworths,Cnr Glebe And Loomes St,Forest Hill,3131,-37.84,145.18
Woolworths,Cnr Stevens And Canterbury Rds,Vermont,3133,-37.84,145.19
Woolworths,Cnr Main & Station St,Box Hill,3128,-37.82,145.12
Woolworths,551-557 Warrigal Rd,Ashwood,3147,-37.86,145.08
Woolworths,42-50 Burwood Hwy,East Burwood,3151,-37.86,145.14
Woolworths,Cnr Williams And Springfield Rds,Blackburn North,3130,-37.82,145.15
Woolworths,117-125 Canterbury Rd,Blackburn South,3130,-37.82,145.15
Woolworths,1341 Dandenong Rd,Chadstone,3148,-37.89,145.08
Woolworths,235 Springvale Road,Glen Waverley,3150,-37.88,145.17
Woolworths,Cnr Police And Jacksons Rds,Mulgrave,3170,-37.87,145.1
Woolworths,"Wheelers Hill Shop. Ctr, 190-200 Jells Rd",Wheelers Hill,3150,-37.88,145.17
Woolworths,Cnr Mcdonalds Rd And Civic Dr,South Morang,3752,-37.65,145.1
Woolworths,Cnr Mernda & Galloway Dr,Mernda Village,3754,-37.62,145.15
Woolworths,Cnr Childs Rd And Redleap Ave,Mill Park,3082,-37.67,145.06
Woolworths,330 - 342 Mcdonalds Rd,South Morang,3752,-37.65,145.1
Woolworths,Cnr Development Bvd And Plenty Rd,Mill Park,3082,-37.67,145.06
Woolworths,25 Hazel Glen Dr,Doreen,3754,-37.62,145.15
Woolworths,8 - 20 Jalileo Gateway,Bundoora,3083,-37.7,145.07
Woolworths,Cnr Manningham Rd And High St,Templestowe,3106,-37.77,145.12
Woolworths,Cnr Grimshaw And Henry Sts,Greensborough,3088,-37.71,145.12
Woolworths,Cnr St Helena And Aquaduct Rds,St Helena,3088,-37.71,145.12
Woolworths,7 Arthur St,Eltham,3095,-37.71,145.15
Woolworths,69-85 Plenty Rd,Bundoora,3083,-37.7,145.07
Woolworths,Cnr Doncaster Rd And Devon Dr,Doncaster,3108,-37.78,145.12
Woolworths,"The Pines Shop. Ctr, Cnr Reynolds And Blackburn Rd",Doncaster East,3109,-37.81,145.19
Woolworths,619 Doncaster Rd (Cnr Williamsons Rd),Doncaster,3108,-37.78,145.12
Woolworths,17-39 Canterbury Rd,Bayswater North,3153,-37.84,145.27
Woolworths,659 Mountain Hwy,Bayswater,3153,-37.84,145.27
Woolworths,171 Maroondah Hwy,Ringwood,3134,-37.81,145.23
Woolworths,Cnr Maroondah Hwy And Edwards Rd,Chirnside Park,3116,-37.75,145.33
Woolworths,33 Hutchinson St,Lilydale,3140,-37.76,145.35
Woolworths,82-84 Warburton Hwy,Yarra Junction,3797,-37.86,145.71
Woolworths,224-238 Mount Dandenong Rd,Croydon,3136,-37.8,145.28
Woolworths,567 Warburton Hwy,Seville,3139,-37.8,145.54
Woolworths,Cnr Mt Dandenong Rd And Russo Pl,Kilsyth,3137,-37.8,145.31
Woolworths,302 Springvale Rd,Springvale,3171,-37.95,145.16
Woolworths,Cnr Heatherton Rd And Matthew Flinders Dr,Endeavour Hills,3802,-37.98,145.25
Woolworths,383-385 Belgrave - Gembrook Rd,Emerald,3782,-37.92,145.47
Woolworths,127 Boronia Rd,Boronia,3155,-37.86,145.28
Woolworths,16-29 Burwood Hwy,Belgrave,3160,-37.91,145.36
Woolworths,Cnr Burwood Hwy And Brenock Park Dr,Ferntree Gully,3156,-37.88,145.3
Woolworths,"Stud Park Shop. Ctr, Stud Rd",Rowville,3178,-37.93,145.24
Woolworths,Cnr Main Rd And Moores Rd,Monbulk,3793,-37.87,145.41
Woolworths,1385 Ferntree Gully Rd,Scoresby,3179,-37.86,145.26
Woolworths,Cnr Burwood Hwy And Ferntree Gully Rd,Ferntree Gully,3156,-37.88,145.3
Woolworths,117-133 Thompson Ave,Cowes,3922,-38.45,145.24
Woolworths,25-65 Station St North,Koo Wee Rup,3981,-38.18,145.57
Woolworths,72-100 Young St,Drouin,3818,-38.24,145.78
Woolworths,28 Sylvia Rd,Beaconsfield,3807,-38.05,145.37
Woolworths,Cnr Murray & Billson St,Wonthaggi,3995,-38.53,145.45
Woolworths,58-66 Victoria St,Warragul,3820,-38.21,145.96
Woolworths,9 Village Way Pakenham,Pakenham,3810,-38.08,145.49
Woolworths,"55 Henry St, Pakenham Market Pl",Pakenham,3810,-38.08,145.49
Woolworths,Cnr Princes Hwy & Cardinia Rd,Officer,3809,-38.06,145.41
Woolworths,371 The Esp,Lakes Entrance,3909,-37.86,147.92
Woolworths,Crn Johnson St And Purdy Lane,Maffra,3860,-37.88,146.99
Woolworths,Mid VAlly Shop. Ctr Princes Hwy,Morwell,3840,-38.28,146.32
Woolworths,Cnr Reeves And Cunningham Sts,Sale,3850,-38.42,147.08
Woolworths,Nicholson St,Bairnsdale,3875,-37.83,147.63
Woolworths,Seymour St,Traralgon,3844,-38.41,146.64
Woolworths,Cnr Smith & Peart St,Leongatha,3953,-38.41,146.07
Woolworths,Cnr George And Anzac St,Moe,3825,-37.7,146.36
Woolworths,Cnr Marina Dr & Monash Way,Churchill,3842,-38.32,146.42
Woolworths,17 James St,Yarram,3971,-38.61,146.67
Woolworths,11 Poyston Dr,Shearwater,7307,-41.19,146.61
Woolworths,11 Cres St,Ulverstone,7315,-41.21,146.18
Woolworths,74 Best St,Devonport,7310,-41.24,146.32
Woolworths,230 Mount St,Upper Burnie,7320,-41.07,145.89
Woolworths,68 Goldie St,Wynyard,7325,-41.07,145.63
Woolworths,142 Nelson St,Smithton,7330,-40.93,145.19
Woolworths,78 Emu Bay Rd,Deloraine,7304,-41.82,146.68
Woolworths,8 Bathurst St,George Town,7253,-41.13,146.87
Woolworths,310 West Tamar Hwy,Riverside,7250,-41.46,147.08
Woolworths,1 Victoria St,Scottsdale,7260,-41.15,147.41
Woolworths,111 Hobart Rd,Kings Meadows,7249,-41.47,147.16
Woolworths,350-358 Westbury Rd,Prospect,7250,-41.46,147.08
Woolworths,Cnr West Tamar Hwy And Freshwater Point Rd,Legana,7277,-41.38,146.97
Woolworths,262 Invermay Rd,Mowbray,7248,-41.42,147.13
Woolworths,36 - 40 Wellington St,Launceston,7250,-41.46,147.08
Woolworths,27 Cole St,Sorell,7172,-42.72,147.75
Woolworths,Cnr Cooper & Eady St,Glenorchy,7010,-42.82,147.3
Woolworths,6 Franklin St,Lindisfarne,7015,-42.84,147.35
Woolworths,6 Shoreline Dr,Howrah,7018,-42.87,147.37
Woolworths,26 Bligh St,Rosny,7018,-42.87,147.37
Woolworths,Cnr Boxhill And Main Rd,Claremont,7011,-42.77,147.24
Woolworths,28 Grn Point Rd,Bridgewater,7030,-42.42,147.14
Woolworths,51-61 George St,New Norfolk,7140,-42.73,147.03
Woolworths,57 King St,Sandy Bay,7005,-42.9,147.31
Woolworths,114 Main Rd,Moonah,7009,-42.84,147.29
Woolworths,37-59 Maranoa Rd,Kingston,7051,-42.99,147.33
Woolworths,192-196 New Town Rd,New Town,7008,-42.87,147.28
Woolworths,189 Campbell St,Hobart,7000,-42.87,147.33
Woolworths,79 Main Rd,Huonville,7109,-42.96,147.08
Woolworths,"44 Argyle St,",Hobart,7000,-42.87,147.33
Woolworths,Channel Ct Shop. Ctr,Kingston,7050,-42.96,147.32
Woolworths,"Building 5, Centre West Business Park, Ashley St",Braybrook,3019,-37.78,144.86
Woolworths,81 Ghostgum Bvd,Banksia Grove,6031,-31.7,115.81
Woolworths,"Ocean Keys Shop. Ctr, 36 Ocean Keys Bvd",Clarkson,6030,-31.68,115.72
Woolworths,150 Camborne Pwy,Butler,6036,-31.65,115.71
Woolworths,Cnr Yanchep Beach Rd & Marmion Ave,Yanchep,6035,-31.55,115.63
Woolworths,"Centro Stirling, 19-26 Sanford St",Geraldton,6530,-28.79,114.6
Woolworths,Cnr Shenton and Marmion Aves,Currambine,6028,-31.73,115.72
Woolworths,"Lakeside Joondalup Shop. Ctr, 420 Joondalup Dr",Joondalup,6027,-31.78,115.76
Woolworths,Cnr Joondalup and Cheriton Drs,Carramar,6031,-31.7,115.81
Woolworths,75 Barrett Dr,Wandina,6530,-28.79,114.6
Woolworths,Carnarvon Bvd Cnr Alexander & Robinson St,Carnarvon,6701,-24.87,113.63
Woolworths,"Broome Bvd Shop. Ctr, Frederick St",Broome,6725,-17.91,122.25
Woolworths,"Stirling Central Shop. Ctr, 478 Wanneroo Rd",Westminster,6061,-31.86,115.84
Woolworths,"Woodvale Shop. Ctr, Cnr Trappers Dr And Whitfords Ave",Woodvale,6026,-31.81,115.79
Woolworths,100 Gungurrua Ave,Hocking,6065,-31.73,115.79
Woolworths,"Kingsway Shop. Ctr, Cnr Wanneroo Rd And Hepburn Ave",Madeley,6065,-31.73,115.79
Woolworths,3 Gunter Gr Cnr Marmion Ave,Beldon,6027,-31.78,115.76
Woolworths,Cnr Marmion and Whitford Aves,Hillarys,6025,-31.78,115.77
Woolworths,"Karrinyup Shop. Ctr, Karrinyup Rd",Karrinyup,6018,-31.92,115.79
Woolworths,"Centro Warwick, Beach Rd",Warwick,6024,-31.83,115.8
Woolworths,131-135 Loch St,Derby,6728,-17.99,124.18
Woolworths,Cnr Beechboro Rd and Bennett Springs Dr,Beechboro ,6063,-31.87,115.92
Woolworths,"Dog Swamp Shop. Ctr, 6 Wanneroo Rd",Yokine,6060,-31.91,115.85
Woolworths,"Noranda Palms Shop. Ctr, Cnr McGilvray Ave & Benara Rd",Noranda,6062,-31.9,115.92
Woolworths,"Alexander Heights Shop. Ctr, Cnr Mirrabooka Ave And Griffon Way",Alexander Heights,6064,-31.83,115.87
Woolworths,"Glenview MarketPl, Cnr Hamelin And Bellefin Drs",Ballajura,6066,-31.84,115.89
Woolworths,"The Mezz, Cnr Flinders St and Scarborough Beach Rd",Mt Hawthorn,6016,-31.92,115.81
Woolworths,Cnr Walter And Collier Rds,Morley,6062,-31.9,115.92
Woolworths,Cnr Grand Promenade and Alexander Dr,Dianella,6059,-31.88,115.86
Woolworths,"Mirrabooka Sq Shop. Ctr, Yirrigan Dr",Mirrabooka,6061,-31.86,115.84
Woolworths,161 Altone Rd,Beechboro,6063,-31.87,115.92
Woolworths,100 St Georges Tce,Perth,6000,-31.92,115.91
Woolworths,384 Scarborough Beach Rd,Innaloo,6018,-31.92,115.79
Woolworths,"Bvd Shop. Ctr, Anderson St",Port Hedland,6721,-20.79,118.6
Woolworths,366 Albany Hwy,Victoria Park,6100,-31.96,115.9
Woolworths,"Cottesloe Central, 460 Stirling Hwy",Cottesloe,6011,-32,115.76
Woolworths,"Floreat Forum, 1 Howtree  Pl",Floreat,6014,-31.94,115.79
Woolworths,166 Murray St,Perth,6000,-31.92,115.91
Woolworths,"Centro Subiaco, Station St",Subiaco,6008,-31.95,115.81
Woolworths,Mulga Way,Wickham,6720,-20.68,117.19
Woolworths,"Centro Karratha, Welcome Rd",Karratha,6714,-20.66,117.09
Woolworths,"Glades Shop. Ctr, 123 Canning Rd",Kalamunda,6076,-32.01,116.09
Woolworths,"Mundaring Shop. Ctr, Cnr Mann St and Great Eastern Hwy",Mundaring,6073,-31.9,116.17
Woolworths,"Northam Bvde Shop. Ctr, 165 Fitzgerald St",Northam,6401,-31.54,116.61
Woolworths,"Midland Gate Shop. Ctr, 274 Great Eastern Hwy",Midland,6056,-31.8,116.03
Woolworths,"20 Strelitzia Ave, Cnr Hale Rd",Forrestfield,6058,-31.99,116.01
Woolworths,"Belmont Forum, Cnr Wright and Abernethy Rds",Cloverdale,6105,-31.96,115.93
Woolworths,309 Great Eastern Hwy,Midland,6056,-31.8,116.03
Woolworths,Hilditch Ave,Newman,6753,-23.36,119.74
Woolworths,The Promenade,Ellenbrook,6069,-31.77,116.01
Woolworths,Cnr Milhouse Rd & Egerton Dr,Aveley,6069,-31.77,116.01
Woolworths,206 Lower King Rd,Bayonet Head,6330,-35.02,117.88
Woolworths,"Stammers Shop. Ctr, 265 Canning Hwy",Palmyra,6157,-32.03,115.78
Woolworths,"Garden City Shop. Ctr, 125 Riseley St",Booragoon,6154,-32.03,115.81
Woolworths,Cnr Stock Rd And Leach Hwy,Willagee,6156,-32.03,115.8
Woolworths,254 Rockingham Rd,Spearwood,6163,-32.09,115.84
Woolworths,"Dog Rock Shop. Ctr, Lockyer Ave",Albany,6330,-35.02,117.88
Woolworths,219 Hampton Rd,South Fremantle,6162,-32.07,115.76
Woolworths,"Chester Pass Mall, Cnr Chester Pass And Catalina Rds",Albany ,6330,-35.02,117.88
Woolworths,1 Waverley Rd,Coolbellup,6163,-32.09,115.84
Woolworths,37 - 39 Reynolds Rd,Mt Pleasant ,6153,-32.02,115.83
Woolworths,"6 Calypso Pde, North Coogee",North Coogee,6163,-32.09,115.84
Woolworths,Forest Lakes Dr,Thornlie,6108,-32.05,115.96
Woolworths,"Southlands Shop. Ctr, Cnr Burrendah Bvd And Pinetree Gully Rd",Willetton,6155,-32.06,115.92
Woolworths,"Kalgoorlie Plaza Shop. Ctr, Hannan St",Kalgoorlie,6430,-30.81,121.38
Woolworths,"Kambalda Shop. Ctr, Bluebush Rd",Kambalda,6442,-31.21,121.62
Woolworths,Westfield Carousel Shop. Ctr 1358 Albany Hwy,Cannington,6107,-32.01,115.96
Woolworths,43 Attfield St,Maddington,6109,-32.05,115.98
Woolworths,Cnr Nicholson And Ranford Rds,Canningvale,6155,-32.06,115.92
Woolworths,1140 Albany Hwy,Bentley,6102,-32,115.92
Woolworths,"Bullcreek Shop. Ctr, 44 Benningfield Rd",Bullcreek,6149,-32.06,115.86
Woolworths,Cnr High Rd And Willeri Dr,Riverton,6148,-32.03,115.92
Woolworths,"Cnr Nicholson Rd & Yellowwood Ave, Harrisdale",Harrisdale,6112,-32.15,116.01
Woolworths,"Kelmscott Central Shop. Ctr, 2889 Albany Hwy",Kelmscott,6111,-32.1,116.19
Woolworths,Lyon and Gibbs Rd,Atwell ,6164,-32.13,115.86
Woolworths,"Kwinana Hub Shop. Ctr, Cnr Chisolm And Gilmore Aves",Kwinana,6167,-32.23,115.87
Woolworths,Cnr Amherst And Warton Rds,Southern River,6110,-32.07,116
Woolworths,Cnr Neerigen St And Orchard Ave,Armadale,6112,-32.15,116.01
Woolworths,"Esperance Bvd Shop. Ctr, Forrest St",Esperance,6450,-33.82,121.94
Woolworths,Cnr Beeliar Dr And Wentworth Pde,Success,6164,-32.13,115.86
Woolworths,Runnymede Gate & The Strand,Wellard,6170,-32.26,115.81
Woolworths,34 Abernethy Rd,Byford,6122,-32.22,116.01
Woolworths,Cnr Settlers and Safety Bay Rd,Baldivis,6171,-32.33,115.82
Woolworths,Oasis Dr,Secret Harbour,6173,-32.4,115.75
Woolworths,Smart St,Mandurah,6210,-32.55,115.75
Woolworths,Cnr Palm Springs Bvd And Warnbro Sound Ave,Warnbro,6169,-32.3,115.71
Woolworths,Cnr Pinjarra And Freemantle Rd,Mandurah,6210,-32.55,115.75
Woolworths,Cnr Mercedes Ave And Old Coast Rd,Falcon,6210,-32.55,115.75
Woolworths,"Rockingham City Shop. Ctr, Council Ave",Rockingham,6168,-32.3,115.76
Woolworths,"Waikiki Village Shop. Ctr, Cnr Read St And Gnangara Dr",Waikiki,6169,-32.3,115.71
Woolworths,2 Eaglemont St (Cnr Kirkpatrick Dr),Mandurah,6210,-32.55,115.75
Woolworths,Cnr Mandurah Rd & Redwood Ave,Karnup,6176,-32.36,115.91
Woolworths,534 Johnston St,Collie,6225,-33.34,116.1
Woolworths,10 Ditchingham Pl,Australind,6233,-33.28,115.71
Woolworths,63 Sandridge Rd,Bunbury,6230,-33.33,115.64
Woolworths,Clive St,Katanning,6317,-33.63,117.9
Woolworths,2 Recreation Dr,Eaton ,6232,-33.32,115.7
Woolworths,CNR Town View Tce & Willmott Ave,Margaret River,6285,-33.91,115.03
Woolworths,65 Kent St,Busselton,6280,-33.68,115.46
Woolworths,54 Tiffany Ctr,Dalyellup,6230,-33.33,115.64
Woolworths,93 - 101 Mottram St,Manjimup,6258,-34.23,116.2
Woolworths,2 Forrest Ave ,South Bunbury,6230,-33.33,115.64
Woolworths,185 Pitt Street,Sydney,2000,-33.86,151.21
Woolworths,65 York Street,Sydney,2000,-33.86,151.21
Woolworths,261-265 Chalmers St,Redfern,2016,-33.89,151.2
Woolworths,"Cnr Crown Kennedy,Suttor & Riley St",East Sydney,2011,-33.87,151.23
Woolworths,Cnr George & Margaret Street,Sydney,2000,-33.86,151.21
Woolworths,"Lower Ground, 333 George Street",Sydney,2000,-33.86,151.21
Woolworths,302-306 Elizabeth Street,Surry Hills,2010,-33.88,151.22
Woolworths,61-79 Quay Street,Haymarket,2000,-33.86,151.21
Woolworths,26-60 BRdway,Chippendale,2000,-33.86,151.21
Woolworths,605 Darling St,Rozelle,2039,-33.86,151.17
Woolworths,"Icon Building, 81 Macleay Street",Potts Point,2011,-33.87,151.23
Woolworths,413-417 Bourke Street,Surry Hills,2010,-33.88,151.22
Woolworths,21-23 Erskineville Road ,Erskineville ,2042,-33.9,151.17
Woolworths,"220 Glenmore Road, Paddington ",Paddington,2021,-33.89,151.22
Woolworths,180-186 Campbell Parade,Bondi Beach,2026,-33.89,151.26
Woolworths,"Shop 7 Randwick Village Shppng Cntr, Cnr Belmore Rd, Avoca And Short Sts",Randwick,2031,-33.91,151.26
Woolworths,20 - 26 Ebsworth St,Zetland,2017,-33.9,151.21
Woolworths,"Coogee Bay Village, Cnr Coogee Bay Road And Brook Street",Coogee,2034,-33.92,151.25
Woolworths,757 New South Head Road,Rose Bay,2029,-33.87,151.28
Woolworths,"Level 1 , 111-139 Darlinghurst Rd",Potts Point,2011,-33.87,151.23
Woolworths,Shop 55 Chatswood Rail Interchange,Chatswood,2057,-33.79,151.19
Woolworths,145 Concord Roadp,North Strathfield,2137,-33.84,151.11
Woolworths,5 Faraday Road,Padstow,2211,-33.95,151.04
Woolworths,130 Pittwater Rd,Boronia Park,2111,-33.82,151.14
Woolworths,109 Pendle Way,Pendle Hill,2145,-33.8,150.95
Woolworths,"Shop 12, 35 Coonara Avenue",West Pennant Hills,2120,-33.74,151.07
Woolworths,1 Woolworths Way,Bella Vista,2153,-33.76,150.99
Woolworths,"Shop 1156, L1 Westfield Parramatta",Parramatta,2150,-33.82,151.01
Woolworths,100 Miller St,North Sydney,2060,-33.84,151.19
Woolworths,23 Broughton St,Kirribilli,2061,-33.85,151.21
Woolworths,Springvale Dr,Hawker,2614,-35.26,149.08
Woolworths,84-86 Cronulla Street,Cronulla,2230,-34.09,151.15
Woolworths,555 Box Road,Jannali,2226,-34.01,151.05
Woolworths,216 Sarsfield Circuit,Bexley North,2207,-33.93,151.13
Woolworths,"Maroubra Shopping Village, Meagher Avenue",Maroubra,2035,-33.95,151.24
Woolworths,61 Mabo Bvd,Bonner,2914,-35.17,149.13
Woolworths,Cnr Flemington Rd and Nullarbour Ave,Franklin,2913,-35.2,149.13
Woolworths,"217 Grey St, Southbank",Brisbane,4101,-27.49,153.02
Woolworths,"485 Kingsford Smith Dr,",Hamilton,4007,-27.43,153.06
Woolworths,57 Musk Ave,Kelvin Grove,4059,-27.45,153.01
Woolworths,48 Brighton Pde,Southport,4215,-27.97,153.42
Woolworths,15 Park Ave,Burleigh Heads,4220,-28.09,153.45
Woolworths,Cnr Collins and Spencer Streets,Docklands,3008,-37.81,144.95
Woolworths,388 Elizabeth Street,Melbourne,3000,-37.81,144.97
Woolworths,60 Elizabeth Street,Melbourne,3000,-37.81,144.97
Woolworths,"Ground Floor, 245-263 City Road",Southbank,3006,-37.82,144.97
Woolworths,"183 - 201 LaTrobe street, Melbourne",Melbourne,3000,-37.81,144.97
Woolworths,600 Bourke Street,Melbourne,3000,-37.81,144.97
Woolworths,727 Collins Street Docklands,Docklands,3008,-37.81,144.95
Woolworths,262 Flinders Street,Melbourne,3000,-37.81,144.97
Woolworths,161 Swanston Street,Melbourne,3000,-37.81,144.97
Woolworths,220 Carlisle St,Balaclava,3183,-37.87,145
Woolworths,Cnr West And Geum Sts,Hadfield,3046,-37.7,144.92
Woolworths,Cnr Glenferrie Rd And Wakefield St,Hawthorn,3122,-37.84,145.05
Woolworths,569 Malvern Rd,Toorak,3142,-37.84,145
Woolworths,808 Sydney Rd,Brunswick North,3056,-37.76,144.94
Woolworths,1068 High Street,Armadale,3143,-37.86,145.02
Woolworths,40 Bluff Road,Black Rock,3193,-37.99,145.03
Woolworths,"360 Orrong Rd, Caulfield North",Caulfield North,3161,-38.03,145.31
Woolworths,64 Fitzroy Street St Kilda,St Kilda,3182,-37.87,144.98
Woolworths,Roselands Drive,Roselands,2196,-33.93,151.05
Woolworths,"Waterfront Way, Waterfront City",Docklands,3008,-37.81,144.95
Coles,15 Temple Terrace,Palmerston,830,-12.49,130.97
Coles,Shop 66,Dianella,6059,-31.88,115.86
Coles,Centro Halls Head SC,Halls Head,6059,-31.88,115.86
Coles,1001 Joondalup Drive,Banksia Grove,6031,-31.7,115.81
Coles,Caversham Shopping Centre,Caversham,6055,-31.87,115.98
Coles,20 Abernethy Road,Byford,6122,-32.22,116.01
Coles,18 Napoleon Promenade,Vasse,6280,-33.68,115.46
Coles,44 Station Street,Subiaco,6008,-31.95,115.81
Coles,Midland Gate Shopping Centre,Midland,6056,-31.8,116.03
Coles,Haynes Shopping Centre,Armadale,6112,-32.15,116.01
Coles,Kalamunda Road,High Wycombe,6057,-31.94,116.01
Coles,26 Safety Bay Road,Baldivis,6171,-32.33,115.82
Coles,Wanneroo Road,Wanneroo,6056,-31.8,116.03
Coles,Kingsbridge Boulevard,Butler,6036,-31.65,115.71
Coles,Prince Street,Busselton,6280,-33.68,115.46
Coles,Cambridge Street,West Leederville,6007,-31.94,115.84
Coles,George Street,Pinjarra,6208,-32.64,115.87
Coles,Ranford Road,Southern River,6110,-32.07,116
Coles,Angelo Street,South Perth,6151,-31.99,115.88
Coles,107 Dunn Bay Road,Dunsborough,6281,-33.62,115.11
Coles,Scarborough Beach Road,Innaloo,6018,-31.92,115.79
Coles,Bayview Terrace,Claremont,6010,-31.98,115.78
Coles,Ocean Keys Boulevard,Clarkson,6030,-31.68,115.72
Coles,Floreat Forum Shopping Centre,Floreat,6104,-31.94,115.92
Coles,Greenwood Village Shopping Centre,Greenwood,6024,-31.83,115.8
Coles,Cnr Benara Road & McGilvray Avenue,Noranda,6062,-31.9,115.92
Coles,Shop 1Cnr Murdoch Drive & Forrest Lakes Drive,Thornlie,6108,-32.05,115.96
Coles,Bussell Highway,Margaret River,6285,-33.91,115.03
Coles,Mandurah Forum Shopping CentreCnr Pinjarra Road & Mandurah Road,Mandurah,6210,-32.55,115.75
Coles,Wilson Street,Kalgoolie,6430,-30.81,121.38
Coles,Karratha City Shopping Centre Welcome Road,Karratha,6714,-20.66,117.09
Coles,Cnr Yirrigan Road & Ferrier Road,Mirrabooka,6061,-31.86,115.84
Coles,Preston Village,Donnybrook,6239,-33.55,115.77
Coles,Leinster Shopping Centre Mansbridge Street,Leinster,6437,-27.45,120.55
Coles,Uduc Road,Harvey,6220,-33,115.89
Coles,Fouraore Street,Waroona,6215,-32.88,115.92
Coles,Carousel Shopping Centre,Cannington,6107,-32.01,115.96
Coles,Cnr Carnarvon Street & Short Street,Broome,6725,-17.91,122.25
Coles,Konkerberry Drive,Kununurra,6743,-15.17,128.55
Coles,Australind Shopping Centre Cnr Old Coast Road & Paris Road,Australind,6233,-33.28,115.71
Coles,Central Road,Tom Price,6751,-21.91,118.09
Coles,Warnbro Sound Avenue,Warnbro,6169,-32.3,115.71
Coles,Cnr Great Eastern Highway & Stoneville Road,Mundaring,6073,-31.9,116.17
Coles,Hannans Boulevard Shopping Centre Graeme Street,Kalgoolie,6430,-30.81,121.38
Coles,Cnr Almondbury Road & Risely & Davey Street,Booragoon,6154,-32.03,115.81
Coles,Cnr Forest Road & Omeo Street,Yangebup,6164,-32.13,115.86
Coles,Collier Road,Morley,6062,-31.9,115.92
Coles,Cnr Joondalup Drive & Collier Street,Joondalup,6027,-31.78,115.76
Coles,Beldridge Shopping Centre,Beldon,6025,-31.78,115.77
Coles,Maddington Metro Shopping Centre Attfield Street,Maddington,6109,-32.05,115.98
Coles,Warwick Grove Shopping CentreCnr Erindale Road & Beach Road,Warwick,6024,-31.83,115.8
Coles,Cnr Blair Street & Stephen Street,Bunbury,6230,-33.33,115.64
Coles,Albany Highway,Victoria Park East,6101,-31.98,115.91
Coles,Woolstores Shopping Centre Cnr Cantonement Street & Goldsborough Street,Fremantle,6160,-32.04,115.76
Coles,Armadale Shopping Centre,Armadale,6112,-32.15,116.01
Coles,Noranda Square Shopping Centre Benara Road,Norand,6062,-31.9,115.92
Coles,Cnr Albany Highway & Gilwell Street,Kelmscott,6111,-32.1,116.19
Coles,Flinders Square Shopping Centre Cnr Wiluna Road & Flinders Road,Stuart Hill,6060,-31.91,115.85
Coles,Wattleglen Avenue,Erskine,6155,-32.06,115.92
Coles,Northgate Shopping Centre17 Chapman Road,Geraldton,6530,-28.79,114.6
Coles,Cnr Waddell Road & Canning Highway,Melville,6156,-32.03,115.8
Coles,Forrestfield Shopping Centre Strelitzia Avenue,Forrestfield,6058,-31.99,116.01
Coles,Village Green Shopping Centre,Karawara,6152,-31.99,115.87
Coles,North Perth Plaza Shopping CentreCnr View Street & Fitzgerald Street,North Perth,6006,-31.98,115.76
Coles,Cnr Burrendah Boulevard & Pinetree Gully Road,Burrendah,6155,-32.06,115.92
Coles,904 Meadow Springs Avenue,Meadow Springs,6210,-32.55,115.75
Coles,Carremer Shopping Centre Cnr Beechboro Road & Benara Road,Beechboro,6063,-31.87,115.92
Coles,38-56 Albany Road,Albany,6330,-35.02,117.88
Coles,Alexander Heights Shopping Centre Cnr Mirrabooka Avenue & Griffon Way,Alexander Heights,6064,-31.83,115.87
Coles,Rockingham City Shopping Centre Read Street,Rockingham,6168,-32.3,115.76
Coles,Flinders Avenue,HIillarys,6025,-31.78,115.77
Coles,Collie Boulevard,Collie,6225,-33.34,116.1
Coles,Shop 50 Ocean Keys Boulevard,Clarkson,6030,-31.68,115.72
Coles,Northlands Plaza Shopping Centre Cnr Wanneroo Road & Amelai Street,Balcatta,6021,-31.86,115.82
Coles,Guildford Road,Maylands,6051,-31.93,115.89
Coles,Scarborough Shopping CentreCnr Scarborough Beach Road & West Coast Highway,Scarborough,6019,-31.89,115.76
Coles,Cnr Champion Drive & Seville Drive,North Armadale,6112,-32.15,116.01
Coles,Inglewood Shopping Centre,Inglewood,6053,-31.92,115.91
Coles,Gosnells Shopping Centre,Godnells,6110,-32.07,116
Coles,South Hedland Shopping Centre Cnr Colebatch Way & Ranson Court,South Hedland,6722,-20.4,118.57
Coles,Risely Street,Booragoon,6154,-32.03,115.81
Coles,Manjimup Shopping CentreCnr Rose Street & Ispen Street,Manjimup,6258,-34.23,116.2
Coles,Collie Shopping Centre 49 Johnston Street,Collie,6225,-33.34,116.1
Coles,Kardinya Park Shopping Centre Cnr Albert Street & South Street,Kardinya,6163,-32.09,115.84
Coles,Mosman Park Shopping Centre,Mosman Park,6012,-32.01,115.76
Coles,Girrawheen Shopping Centre Marangaroo Drive,Girrawheen,6064,-31.83,115.87
Coles,Cnr Central Road & Mead Street,Kalamunda,6076,-32.01,116.09
Coles,Bassendean Shopping Centre Cnr West Road & Guilford Road,Bassendean,6054,-31.92,115.94
Coles,Cnr Ensign Street & Earl Street,Narrogin,6312,-32.95,117.36
Coles,Swanview Shopping Centre,Swanview,6056,-31.8,116.03
Coles,Crosslands Shopping Centre Cnr Kenny Street & Brittain Road,Bunbury South,6230,-33.33,115.64
Coles,Firle Plaza Shopping CentreCnr Glyburn Road & Shelley Street,Firle,5070,-34.89,138.64
Coles,Findon Shopping CentreCnr Grange Road & Findon Road,Findon,5023,-34.91,138.53
Coles,Casuarina Square Shopping Centre Cnr Dripstone Road & Trower Road,Casuarina,810,-12.38,130.88
Coles,Anzac Highway,Kurralta Park,5037,-34.96,138.57
Coles,Dernancourt Village Shopping Centre Lower North East Road,Dernancourt,5075,-34.86,138.68
Coles,St Agnes Shopping Centre Main North East Road,St Agnes,5097,-34.82,138.7
Coles,Alice Springs Shopping Centre Cnr Gregory Terrace Street & Bath Street,Alice Springs,870,-12.44,130.84
Coles,Parkholme Shopping Centre,Parklands,5043,-34.99,138.56
Coles,Nile Street,Glenelg,5045,-34.98,138.52
Coles,Ingle Farm Shopping Centre Motague Street,Ingle Farm,5098,-34.83,138.65
Coles,Welland Plaza Shopping Centre Port Road,Welland,5007,-34.9,138.58
Coles,Unley Shopping Centre,Unley,5061,-34.96,138.61
Coles,Grote Street,Adelaide,5000,-34.93,138.6
Coles,Cnr Sherriffs Road & Hilliers Road,Reynella,5162,-35.12,138.52
Coles,Colonnades Shopping Centre Beach Road,Noarlunga,5168,-35.14,138.49
Coles,Hollywood Plaza Shopping Centre,Salisbury Downs,5108,-34.76,138.61
Coles,Liverpool Street,Port Lincoln,5606,-34.73,135.87
Coles,Pirie Plaza Shopping Centre,Port Pirie,5540,-33.2,138.07
Coles,Northern Market Shopping CentreCnr Murray Street & Cowan Street,Gawler,5118,-34.64,138.77
Coles,Bridgewater Village Shopping Centre,Bridgewater,5155,-35.01,138.76
Coles,Newton Shopping CentreCnr Montacute Road & Stradbroke Road,Newton,5074,-34.88,138.66
Coles,Cnr Main Road & Young Street,Blackwood,5051,-35.02,138.62
Coles,The Avenue Shopping CentreCnr Payneham Road & Nelson Street,St Peters,5069,-34.91,138.62
Coles,Palmerston Shopping Centre Cnr Temple Terrace & Chung Wah Terrace,Palmerston,830,-12.49,130.97
Coles,Riverland Plaza Shopping Centre,Berri,5343,-34.29,140.6
Coles,Castle Plaza Shopping Centre 992 South Road,Edwardstown,5039,-34.97,138.58
Coles,Burnside Village Shopping Centre,Glenside,5065,-34.94,138.63
Coles,West Lakes Shopping CentreCnr West Lakes Boulevard & Turner Drive,West Lakes,5021,-34.87,138.48
Coles,Cnr Jervois Street & Marryatt Street,Port Augusta,5700,-32.73,137.92
Coles,Marion Shopping Centre Cnr Diagonal Street & Sturt Street,Marion,5043,-34.99,138.56
Coles,Westfield Tee Tree Plaza Shopping Centre North East Road,Modbury,5092,-34.83,138.69
Coles,Mitchell Street,Darwin,800,-12.8,130.96
Coles,Prospect Road,Prospect,5082,-34.9,138.59
Coles,Elizabeth City Shopping Centre,Elizabeth,5112,-34.71,138.67
Coles,353-361 High Road,Parkwood,6147,-32.04,115.94
Coles,The Parade,Norwood,5067,-34.92,138.64
Coles,Main North Road,Prospect,5082,-34.9,138.59
Coles,North LakesCnr Links Road & McMillans Road,Marrara,812,-12.4,130.91
Coles,Le Grande Shopping Centre,Albany,6330,-35.02,117.88
Coles,300 Murray Street,Raine Square,6000,-31.92,115.91
Coles,188-196 Swan Street,Richmond,3121,-37.83,145.01
Coles,Main Street,Ellenbrook,6069,-31.77,116.01
Coles,425 Stuart Highway,Coolalinga,839,-12.48,131.03
Coles,4 Chisham Avenue,Kwinana,6167,-32.23,115.87
Coles,Westfield Whitford City Shopping Centre,Hillarys,6025,-31.78,115.77
Coles,Cockburn Gateway Shopping Centre,Success,6164,-32.13,115.86
Coles,10 Beamish Avenue,Northam,6401,-31.54,116.61
Coles,Eaton Fair Shopping Centre,Eaton,6232,-33.32,115.7
Coles,8 Durnin Avenue,Beeliar,6164,-32.13,115.86
Coles,23 O'Riordan Street,Alexandria,2015,-33.9,151.2
Coles,Old Port Canal Shopping Centre Cnr Church Street & Leadenhall Street,Port Adelaide,5015,-34.84,138.5
Coles,65 High Street,Belmont,3216,-38.18,144.34
Coles,Whitehorse Plaza Shopping Centre,Box Hill,3128,-37.82,145.12
Coles,Pinewood Centreway Shopping Centre,Mt Waverley,3149,-37.88,145.13
Coles,Main Hurstbridge Road,Diamond Creek,3089,-37.64,145.22
Coles,Tooronga Road,Glen Iris,3146,-37.85,145.07
Coles,The Glen Shopping Centre Cnr High Street & Springvale Road,Glen Waverley,3150,-37.88,145.17
Coles,Cnr Exeter Road & Maroondah Highway,Croydon North,3136,-37.8,145.28
Coles,Corio Village Shopping Centre Cnr Bacchus Marsh Road & Purnell Road,Corio,3214,-38.07,144.36
Coles,Coventry Street,South Melbourne,3205,-37.93,145.03
Coles,Bulleen Village Shopping Centre,Bulleen,3105,-37.77,145.08
Coles,Sanctuary Lakes Shopping Centre,Point Cook,3030,-37.97,144.58
Coles,Shop 13 Ashleigh Avenue & Falm Street,Karingal,3199,-38.15,145.12
Coles,Melton Regional Shopping Centre Cnr Western Highway & Coburns Road,Melton West,3337,-37.68,144.59
Coles,Village Lakeside Lakeside Boulevard,Pakenham,3180,-37.89,145.25
Coles,Glenferrie Road,Glenferrie,3122,-37.84,145.05
Coles,Military Road,Avondale Heights,3034,-37.74,144.82
Coles,Reynolds Road,East Doncaster,3109,-37.81,145.19
Coles,Cnr Britannia Street & Victoria Street,MIitcham,3132,-37.82,145.19
Coles,Sayers Road,Tarneit,3030,-37.97,144.58
Coles,Mountain Gate Shopping Centre,Ferntree Gully,3156,-37.88,145.3
Coles,Cnr Pier Street & Queen Street,Altona,3018,-37.87,144.83
Coles,Shop 1Cnr Gladesville Boulevard & Thompson Road,Patterson Lakes,3197,-38.08,145.12
Coles,Centre Road,Clayton,3168,-37.93,145.12
Coles,Shop M01,Point Cook,3030,-37.97,144.58
Coles,Gateway Plaza Shopping Centre Bellarine Highway,Leopold,3228,-38.33,144.26
Coles,Brandon Park Shopping Centre,Mulgrave,3170,-37.87,145.1
Coles,729 Pt Nepean Road,McCrae,3938,-37.99,145.22
Coles,29 Douglas Parade,Williamstown,3016,-37.86,144.9
Coles,Eden Rise S.C 95,Berwick South,3806,-38.03,145.34
Coles,Warringal Mall Shopping Centre,Heidleberg,3084,-37.74,145.09
Coles,Cnr Mentone Parade & Brendise Street,Mentone,3194,-37.98,145.06
Coles,Centre Point Shopping Centre,Warragul,3820,-38.21,145.96
Coles,Main Street,Bairnsdale,3875,-37.83,147.63
Coles,Noble Park Shopping Centre,Noble Park,3174,-37.97,145.18
Coles,Cnr Sydney Road & Mahoneys Road,Campbellfield,3061,-37.64,144.95
Coles,Cnr Sydney Street & Clarke Street,Kilmore,3764,-37.31,144.89
Coles,Cnr Police Road & Jacksons Road,Mulgrave,3170,-37.87,145.1
Coles,Cnr Lake Street & Caroline Street,Caroline Springs,3023,-37.75,144.75
Coles,Manor Lakes Shopping CentreManor Lakes Boulevard,Wyndham Vale,3024,-37.9,144.56
Coles,Furlong Road,Cairnlea,3023,-37.75,144.75
Coles,Spencer Street,Docklands,3008,-37.81,144.95
Coles,Burke Road,Camberwell,3122,-37.84,145.05
Coles,George Street,Morwell,3840,-38.28,146.32
Coles,Cnr Albert Street & Bridport Street,Daylesford,3460,-37.31,144.09
Coles,Gateway Plaza Raglan Street,Warrnambool,3280,-38.36,142.44
Coles,Doncaster Road,Balwyn North,3104,-37.79,145.07
Coles,Broadmeadows Town Centre Pascoe Vale Road,Broadmeadows,3047,-37.68,144.92
Coles,Mooroolbark Shopping Centre,Mooroolbark,3138,-37.77,145.33
Coles,Cnr Camden Street & Alfred Street,Balaclava,3183,-37.87,145
Coles,Chapel Street,Prahran,3181,-37.85,144.99
Coles,Beveridge Street & McCrae Street,Swan Hill,3585,-35.42,143.59
Coles,Glenferrie Road,Malvern,3144,-37.84,145.03
Coles,Doncaster Shopping Centre Cnr Doncaster Road & Williamsons Road,Doncaster,3108,-37.78,145.12
Coles,Albert Street,Sebastopol,3356,-37.59,143.83
Coles,Cooke Street,Clayton,3168,-37.93,145.12
Coles,English Street,Essendon Airport,3041,-37.74,144.91
Coles,Johnston Street,Fitzroy,3065,-37.8,144.98
Coles,Shop M5 Burwood Highway,Burwood East,3151,-37.86,145.14
Coles,Plenty Road,Bundoora,3083,-37.7,145.07
Coles,Eramosa Road,West Somerville,3192,-37.96,145.06
Coles,Sydney Road,Coburg,3058,-37.73,144.96
Coles,Eighth Street,Mildura,3500,-34.18,142.16
Coles,Vickery Street,Bentleigh,3204,-37.92,145.04
Coles,Northpoint Shopping Centre Hopkins Highway,North Warnambool,3280,-38.36,142.44
Coles,Ivanhoe Plaza Shopping Centre,Ivanhoe,3079,-37.77,145.04
Coles,Spring Street,Reservoir,3073,-37.69,145.01
Coles,Boronia Shopping Centre Cnr Floriston Road & Turner Road,Boronia,3155,-37.86,145.28
Coles,Latrobe Street,Melborne,3000,-37.81,144.97
Coles,Cnr Henry Road & McGregor Road,Pakenham,3810,-38.08,145.49
Coles,May Street,Lalor,3075,-37.67,145.02
Coles,Aitken Street,Gisborne,3437,-37.52,144.48
Coles,Greenvale Drive,Greenvale,3059,-37.64,144.89
Coles,Tunstall Square Shopping Centre Cnr Doncaster Road & Tunstall Road,Donvale,3109,-37.81,145.19
Coles,Mt Dandenong Road,Kilsyth,3137,-37.8,145.31
Coles,Mt Derrimut Road,Derrimut,3030,-37.97,144.58
Coles,Cnr Darlot Street & Roberts Avenue,Horsham,3400,-36.71,142.2
Coles,Wendouree Village Shopping Centre Cnr Gilles Street & Norman Street,Wendouree,3355,-37.55,143.82
Coles,Border Shopping Centre Cnr Griffith Road & Urana Road,Lavington,2641,-36.04,146.92
Coles,Altona Gate Shopping Centre Cnr Millers Road & Duosa Road,Altona North,3025,-37.84,144.86
Coles,Cnr Darling Street & Hare Street,Echuca,3564,-36.13,144.73
Coles,Cnr Duff Street & Monehans Road,Cranbourne West,3977,-38.21,145.32
Coles,Chirnside Park Shopping Centre,Chirnside Park,3116,-37.75,145.33
Coles,Parkmore Keysborough Shopping Centre,Keysborough,3173,-37.99,145.15
Coles,Albert Street,Moe,3825,-37.7,146.36
Coles,Northcote Plaza Shopping Centre,Northcote,3070,-37.77,145
Coles,Peel Street,Ballarat,3350,-37.56,143.82
Coles,Hope Street,Drouin,3818,-38.24,145.78
Coles,Croydon Market Shopping Centre Cnr Kent Avenue & Wicklow Avenue,Croydon,3136,-37.8,145.28
Coles,Barkly Square Shopping Centre,Brunswick,3056,-37.76,144.94
Coles,Caulfield Plaza Shopping Centre Cnr Dandenong Road & Derby Road,Caulfield,3162,-37.88,145.03
Coles,Wodonga Plaza Shopping CentreCnr Elgin Street & Watson Street,Wodonga,3690,-36.1,146.82
Coles,Ringwood Square Shopping Centre Cnr Maroondah Highway & New Street,Ringwood,3134,-37.81,145.23
Coles,Cnr Williamson Street & Myer Street,Bendigo,3550,-36.76,144.28
Coles,Cnr Glenroy Road & Morgan Court,Glenroy,3046,-37.7,144.92
Coles,Cnr Church Street & Victoria Street,Hastings,3915,-38.31,145.19
Coles,Cnr Waltham Street & Abbots Street,Sandringham,3191,-37.95,145.01
Coles,Chadstone Shopping Centre Cnr Dandenong Road & Chadstone Road,Chadstone,3148,-37.89,145.08
Coles,Station Square Shopping Centre Cnr Hanover Street & Portman Street,Oakleigh,3166,-37.9,145.08
Coles,Cnr Bay Street & Liardet Street,Port Melbourne,3207,-37.83,144.96
Coles,Forest Hill Shopping Centre Cnr Mahoneys Road & Canterbury Road,Forest Hill,3131,-37.84,145.18
Coles,Cnr Evans Road & Riddell Road,Sunbury,3429,-37.58,144.73
Coles,Keilor Downs Plaza Shopping Centre,Keilor Downs,3038,-37.73,144.81
Coles,Knox City Shopping Centre Cnr Burwood Highway & Stud Road,Wantirna South,3152,-37.87,145.24
Coles,Endeavour Hills Shopping Centre,Endeavour Hills,3802,-37.98,145.25
Coles,Cnr Keys Street & Ross Smith Avenue,Frankston,3199,-38.15,145.12
Coles,Cnr High Street & Cooper Street,Epping,3076,-37.64,145.01
Coles,Church Street,Brighton,3186,-37.91,144.99
Coles,Greensborough Plaza,Greensborough,3088,-37.71,145.12
Coles,Melrose Drive,Wodonga West,3690,-36.1,146.82
Coles,Dandenong Plaza Shopping Centre Cnr Stud Road & Clow Street,Dandenong,3175,-38.03,145.18
Coles,Main Way,Lilydale,3140,-37.76,145.35
Coles,Cnr Central Avenue & Merton Street,Laverton,3028,-37.87,144.78
Coles,The Terrace,Ocean Grove,3226,-38.27,144.54
Coles,Mt Alexander Road,Moonee Ponds,3039,-37.77,144.92
Coles,Acland Street,St Kilda,3182,-37.87,144.98
Coles,Westfield Southland Shopping Centre,Cheltenham,3192,-37.96,145.06
Coles,Cnr Frankston/Cranbourne Road & Southgate Way,Langwarren,3910,-38.15,145.19
Coles,Cnr Elizabeth Street & Flinders Street,Melbourne,3000,-37.81,144.97
Coles,Cnr Main Street & Young Street,Bacchus Marsh,3340,-37.68,144.44
Coles,Barkley Street,Mornington,3931,-38.24,145.06
Coles,Main Street,Pakenham,3810,-38.08,145.49
Coles,Cnr Wood Street & Hardinge Street,Deniliquin,2710,-35.23,144.49
Coles,Vermont South Shopping Centre Cnr Burwood Highway & Hanover Street,Vermont South,3133,-37.84,145.19
Coles,Eltham Village Shopping Centre,Eltham,3095,-37.71,145.15
Coles,Gippsland Shopping Centre,Sale,3850,-38.42,147.08
Coles,Maroondah Highway,Healsville,3777,-37.69,145.54
Coles,Cnr Springvale Road & Princes Highway,Springvale,3171,-37.95,145.16
Coles,Plenty Square Shopping Centre Cnr Settlement Road & Plenty Road,Bundoora,3083,-37.7,145.07
Coles,Princes Highway,Dandenong,3175,-38.03,145.18
Coles,Cnr McDonalds Road & Civic Drive,South Morang,3752,-37.65,145.1
Coles,Victoria Street,Richmond,3121,-37.83,145.01
Coles,Cnr Ryley Street & Greta Road,Wangaratta,3677,-36.35,146.3
Coles,Werribee Plaza Shopping Centre Cnr Heaths Road & Derrimut Road,Hoppers Crossing,3030,-37.97,144.58
Coles,West End Plaza Shopping Centre Cnr Townsend Street & Smollet Street,Albury,2640,-36.08,146.91
Coles,Traralgon Centre Plaza Shopping Centre Cnr Grey Street & Franklins Street,Traralgon,3844,-38.41,146.64
Coles,Cnr Maude Street & Corio Street,Shepparton,3630,-36.36,145.4
Coles,Port Phillip Plaza Shopping Centre Cnr Boneo Road & Mccombe Street,Rosebud,3939,-38.4,144.9
Coles,Stud Park Shopping Centre Cnr Stud Road & Fullham Road,Rowville,3178,-37.93,145.24
Coles,Lynbrook Boulevard,Lynbrook,3975,-38.05,145.26
Coles,Sentry Drive,Stanhope Gardens,2768,-33.74,150.92
Coles,Commissioner Street,Cooma,2630,-36.37,148.95
Coles,Sturt Mall Shopping Centre Cnr Forsyth Street & Barry Street,Wagga,2650,-35.16,147.51
Coles,Rider Boulevard,Rhodes Waterside,2138,-33.85,151.09
Coles,Shop 1 White Cross Road,Winmallee,2777,-33.67,150.65
Coles,George Street,Sydney,2000,-33.86,151.21
Coles,Margaret Street,Picton,2571,-34.29,150.53
Coles,Fairwater Drive,Harrington Park,2567,-34.05,150.76
Coles,Figtree Shopping Centre Cnr Gladstone Street & Princess Highway,Figtree,2525,-34.44,150.86
Coles,Ray Street,Turramurra,2074,-33.71,151.15
Coles,The Horseley Drive,Smithfield,2164,-33.85,150.94
Coles,Roselands Shopping Centre,Roselands,2196,-33.93,151.05
Coles,Cnr Bathurst Street & Elizabeth Drive,Liverpool,2170,-33.95,150.91
Coles,Tanda Place,South Wagga,2650,-35.16,147.51
Coles,Westfield Shopping Town Carlisle Avenue,Mount Druitt,2770,-33.73,150.82
Coles,Union Street,Pyrmont,2009,-33.87,151.19
Coles,Curtin Place,Curtin,2605,-35.32,149.08
Coles,707-751 Anzac Parade,Maroubra,2035,-33.95,151.24
Coles,Cnr Parker Street & Carp Street,Bega,2550,-36.64,149.86
Coles,Balfour Shopping Centre,Lindfield,2070,-33.77,151.19
Coles,Koorala Street,Manly Vale,2093,-33.79,151.26
Coles,Turton Road,Waratah,2298,-32.91,151.73
Coles,Jamison Shopping Centre,Macquarie,2614,-35.26,149.08
Coles,Fairfield Forum Shopping Centre Cnr Station Street & Ware Street,Fairfield,2165,-33.87,150.96
Coles,Clark Street,Earlwood,2206,-33.93,151.1
Coles,Wyong Road,Tuggerah,2259,-33.27,151.4
Coles,Hyatt Kingsgate Shopping Centre,Kings Cross,2011,-33.87,151.23
Coles,George Street,Windsor,2756,-33.64,150.79
Coles,Russell Street,Tumut,2720,-35.32,148.45
Coles,Pacific Highway,Asquith,2077,-33.69,151.11
Coles,Pennant Hills Road,West Pennant Hills,2125,-33.75,151.04
Coles,The Grand Parade,Ramsgate,2217,-33.98,151.13
Coles,Westfield Shopping Centre,Miranda,2228,-34.03,151.1
Coles,Rawson Street,Epping,2121,-33.77,151.08
Coles,Rose Bay Old South Head Road,Rose Bay,2029,-33.87,151.28
Coles,Southgate Shopping Centre Cnr Princes Highway & Hacking Plaza,Sylvania,2224,-34,151.1
Coles,TEMPORARY CLOSURE AS OF 29/7/07 Byamee Street,Dapto,2530,-34.51,150.73
Coles,Belconnen Mall Shopping Centre Cnr Emu Bank Road & Lathlain Drive,Belconnen,2617,-35.24,149.07
Coles,Cnr Kinghorne Street & Junction Street,Nowra,2541,-34.84,150.57
Coles,Yaralla Road,Toukley,2263,-33.27,151.54
Coles,Westfield Hurstville Shopping Centre Cnr Cross Street & Park Road,Hurstville,2220,-33.97,151.1
Coles,Cnr Bates Drive & Freya Street,Kareela,2232,-34.08,151.06
Coles,Dee Why Plaza,Dee Why,2099,-33.74,151.28
Coles,Cnr Murray Street & South Argyle Street,Camden,2570,-34.08,150.54
Coles,Wyoming Village Shopping Centre,Wyoming,2250,-33.11,151.14
Coles,Dubbo Shopping Centre Cnr Bultje Street & Macquarie Street,Dubbo,2830,-32.2,148.9
Coles,Parkside Plaza Shopping Centre,Miranda,2228,-34.03,151.1
Coles,Ashfield Mall Shopping Centre,Ashfield,2131,-33.89,151.13
Coles,Richmond Mall Shopping Centre,Richmond,2753,-33.62,150.71
Coles,Waratah Road,Engadine,2233,-34.07,151.01
Coles,Chatswood Chase Shopping Centre Cnr Victoria Avenue & Archer Street,Chatswood,2067,-33.8,151.19
Coles,Kings Langley Shopping Centre,Kings Langley,2147,-33.74,150.92
Coles,Jackson Road,Warriewood,2102,-33.69,151.3
Coles,Lakeside Plaza,The Entrance,2261,-33.38,151.48
Coles,Randwick Plaza Shopping Centre,Randwick,2031,-33.91,151.26
Coles,Lithgow Valley Shopping Centre Cnr Hassen Street & Bent Street,Lithgow,2790,-33.22,150.02
Coles,Argyle Mall Shopping Centre Cnr Clifford Street & Auburn Street,Goulburn,2580,-34.44,149.96
Coles,Cnr Hibberson Street & Gungahlin Place,Gungahlin,2912,-35.52,149.08
Coles,Oxley Mall Shopping Centre Cnr Boolwey Street & Bendooley Street,Bowral,2576,-34.54,150.39
Coles,Surry Hills Shopping Village Cnr Cleveland Street & Baptist Street,Surry Hills,2010,-33.88,151.22
Coles,Pacific Highway,Swansea,2281,-33.08,151.65
Coles,Eastgate Shopping Centre Cnr Newland Street & Spring Street,Bondi,2026,-33.89,151.26
Coles,Perry Street,Batemans Bay,2536,-35.73,150.2
Coles,Junction Fair Shopping Centre,Newcastle Junction,2300,-32.94,151.77
Coles,Barrenjoey Road,Newport,2000,-33.86,151.21
Coles,Shop 1,Manly,2095,-33.8,151.29
Coles,St Marys Plaza Shopping Centre,St Marys,2760,-33.78,150.79
Coles,Lakehaven Shopping Centre Cnr Arizon Road & Goobarabah Avenue,Gorokan,2263,-33.27,151.54
Coles,Riverside Plaza Shopping Centre Cnr Monaro Street & Collett Street,Queanbeyan,2620,-35.58,149.23
Coles,West Gosford Shopping Centre Cnr Brisbane Water Drive & Corumbene Road,West Gosford,2250,-33.11,151.14
Coles,Westfield Shopping Centre,Warrawong,2502,-34.47,150.87
Coles,Cnr Macquarie Street & Edgar Street,Belmont,2280,-33.04,151.66
Coles,Cowper Street,Wallsend,2287,-32.89,151.69
Coles,Castle Towers Shopping Centre,Castle Hill,2154,-33.73,151.01
Coles,Cnr Richmond Road & Woodcraft Drive,Doonside,2767,-33.77,150.87
Coles,Big Bear Shopping Complex,Neutral Bay,2089,-33.83,151.22
Coles,Oceanview Partments Cnr Moate Street & Princess Street,Brighton,2216,-33.95,151.14
Coles,Flagstaff Street,Gladesville,2111,-33.82,151.14
Coles,Garden City S/C Cnr Northcott Drive & Park Avenue,Kotara,2289,-32.93,151.73
Coles,Valley Plaza,Hinchinbrook,2168,-33.92,150.9
Coles,227-237 SUMMER ST,Orange,2800,-33.12,149.03
Coles,47 William Street,Bathurst,2795,-33.91,149.33
Coles,Cnr Crossing Street & Yambil Street,Griffith,2680,-34.26,146.1
Coles,Cnr Broadway Street & Bay Street,Broadway,2007,-33.88,151.2
Coles,Tenancy W36 & W37 Wynyard Railway Concourse,Sydney,2000,-33.86,151.21
Coles,Willarong Road,Sth Caringbah,2229,-34.04,151.12
Coles,Cnr Australia Avenue & Village Way,Wattle Grove,2173,-33.95,150.95
Coles,Winston Hills Mall,Winston Hills,2153,-33.76,150.99
Coles,Windsor Riverview Shopping Centre George Street,Windsor,2756,-33.64,150.79
Coles,Boree Street,Ulladulla,2539,-35.52,150.39
Coles,Norton Plaza Shopping Centre Norton Street,Leichardt,2040,-33.88,151.16
Coles,Illawong Shopping Centre Fowlers Road,Illawong,2234,-33.99,151.02
Coles,Keltie Street,Phillip,2606,-35.35,149.08
Coles,Birkenhead Shopping Centre,Drummoyne,2047,-33.85,151.15
Coles,The Boulevard,Toronto,2283,-33.06,151.58
Coles,Norwest Lakeside Shopping Centre Norwest Boulevard,Baulkham Hills,2153,-33.76,150.99
Coles,Cnr Anderson Albert & Spring Street,Chatswood Chase,2057,-33.79,151.19
Coles,Oxford Street,Bondi Junction,2022,-33.89,151.25
Coles,Starkey Street,Forestville,2083,-33.51,151.16
Coles,Shop 42,Chisholm,2905,-35.43,149.08
Coles,Manuka Plaza,Manuka,2603,-35.32,149.12
Coles,Westfield Shoppingtown,Hornsby,2077,-33.69,151.11
Coles,Westfield Shoppingtown Cnr Wilga Street & Shaftesbury Road,Burwood,2134,-33.88,151.1
Coles,Patrick Street,Blacktown,2148,-33.79,150.87
Coles,Cnr Keene Street & North Ave & Charlton Avenue,Cessnock,2325,-32.84,151.38
Coles,Majors Bay Road,Concord,2137,-33.84,151.11
Coles,1/21 Wentworth Street,Manly,2570,-34.08,150.54
Coles,101 Boomerang Place,Cambridge Gardens,2747,-33.74,150.72
Coles,Main Road,Edgeworth,2285,-32.93,151.66
Coles,Warners Bay Shoppng Centre,Warners Bay,2282,-32.99,151.64
Coles,Pacific Highway,San Remo,2262,-33.21,151.49
Coles,Kellyville Shopping Centre,Kellyville,2155,-33.7,150.95
Coles,Pittwater Place,Mona Vale,2103,-33.68,151.3
Coles,Erina Fair Shopping Centre,Erina,2250,-33.11,151.14
Coles,Condamine Street,Balgowlah,2093,-33.79,151.26
Coles,Victoria Road,North Parramatta,2150,-33.82,151.01
Coles,204 Princes Highway,Corrimal,2518,-34.37,150.91
Coles,Lake Road,Glendale,2285,-32.93,151.66
Coles,Westfield Shopping Centre Cnr Marsden Street & Campbell Street,Parramatta,2150,-33.82,151.01
Coles,Old Pittwater Road,Brookvale,2100,-33.77,151.25
Coles,The Hunter at Greenhills Shopping Centre,East Maitland,2323,-32.77,151.6
Coles,Cnr New South Head Road & Ocean Street,Edgecliff,2027,-33.87,151.24
Coles,Forster Village Shopping Centre Cnr Breeze Parade & Water Street,Forster South,2428,-32.35,152.54
Coles,Nepean Shopping CentreCnr Station Street & Reserve Street,Penrith,2750,-33.74,150.65
Coles,Bay Village Shopping Centre,Bateau Bay,2261,-33.38,151.48
Coles,Deepwater Plaza Shopping Centre Cnr Railway Street & George Street,Woy Woy,2256,-33.5,151.33
Coles,Campbelltown Mall Shopping Centre,Campbelltown,2560,-34.08,150.83
Coles,Casuala Mall Shopping Centre Kurrajong Road,Casuala,2170,-33.95,150.91
Coles,Eastgardens Shopping Centre Cnr Bunnerong Road & Wentworth Avenue,Pagewood,2035,-33.95,151.24
Coles,Hyperdome Shopping Centre Cnr Pittman Street & Ankertell Street,Tuggeranong,2900,-35.42,149.07
Coles,Shop 1a Ocean Drive,Port Macquarie,2444,-31.4,152.85
Coles,34 Parke Street,Katoomba,2780,-33.71,150.31
Coles,Mulga Road,Oatley West,2223,-33.97,151.08
Coles,Cnr Windsor Road & Commercial Road,Rouse Hill,2155,-33.7,150.95
Coles,Shop 1 Alison Road,Wyong,2259,-33.27,151.4
Coles,118 - 126 Princes Hwy,Fairy Meadow,2519,-34.39,150.88
Coles,Turner Road,Berowa Heights,2082,-33.61,151.14
Coles,Edensor Road,Edensor Park,2176,-33.88,150.87
Coles,Kelly Street,Scone,2337,-31.99,151.12
Coles,Cnr Minmi Road & Churnwood Drive,Fletcher,2287,-32.89,151.69
Coles,Hurstville Railway Station Forest Road,Hurstville,2220,-33.97,151.1
Coles,Sturdee Parade,Dee Why,2099,-33.74,151.28
Coles,Gowrie Street Mall,Singleton,2330,-32.51,150.86
Coles,Rutherford Shopping Centre Hillview Street,Rutherford,2320,-32.69,151.53
Coles,Yambo Street,Morriset,2264,-33.1,151.55
Coles,Stocklands Mall Shopping Centre Windsor Road,Baulkham Hills,2153,-33.76,150.99
Coles,Earnest Avenue,Chipping Norton,2170,-33.95,150.91
Coles,29-33 Darcy Road,Westmead,2145,-33.8,150.95
Coles,Macquarie Street,Taree,2430,-32.07,152.54
Coles,17 Chatham Rd,West Ryde,2114,-33.8,151.08
Coles,Central Place,Ropes Crossing,2760,-33.78,150.79
Coles,Shop 16 Crystal Street,Waterloo,2017,-33.9,151.21
Coles,Beatty Boulevard,Tanilba Bay,2753,-33.62,150.71
Coles,Figtree Boulevard,Wadalba,2259,-33.27,151.4
Coles,Westend Shopping CentreCnr King Street & National Park Street,Newcastle West,2302,-32.92,151.76
Coles,Charlestown Square Shopping Centre Pearson Street,Charlestown,2290,-33,151.69
Coles,Lang Street,Kurri Kurri,2327,-32.82,151.48
Coles,Roselands Shopping Centre,Roselands,2196,-33.93,151.05
Coles,6 Gates Road,Jimboomba,4280,-27.83,153.03
Coles,North Rocks Shopping Centre,North Rocks,2151,-33.8,151.01
Coles,100 Macquarie Road,Ingleburn,2564,-33.99,150.89
Coles,Jewelstown Plaza,Belmont North,2280,-33.04,151.66
Coles,3 Burroway Road,Wentworth Point,2127,-33.85,151.08
Coles,Pacific Fair Shopping Centre,Broadbeach,4218,-28.03,153.43
Coles,7-15 Larsen Road,Redlynch,4870,-16.88,145.75
Coles,121 Foxwell Road,Coomera,4209,-27.87,153.32
Coles,Cnr Herbert Street & Callandoon Street,Goondiwindi,4390,-28.15,150.29
Coles,346 Gympie Road,Kedron,4031,-27.41,153.03
Coles,329 Gardner Road,Rochdale,4123,-27.57,153.13
Coles,65 Winnima Way,Berkeley,2506,-34.48,150.84
Coles,23 - 30 Mt Warren Bvd,Mt Warren Park,4207,-27.72,153.27
Coles,21 Ross Street,Benowa,4217,-28.01,153.39
Coles,55 Creek Road,Mt Gravatt,4122,-27.54,153.1
Coles,Cnr Fox Street & Kerr Street,Ballina,2478,-28.87,153.56
Coles,Caboolture Park Shopping Centre,Caboolture,4510,-27.13,153.05
Coles,The Pines Shopping Centre Cnr Mcgrath Drive & Guiness Creek Road,Elanora,4221,-28.14,153.47
Coles,Kim Kora Shopping Centre,Gladstone,4680,-23.86,151.27
Coles,Logan Hyperdome Shopping Centre Cnr Pacific Highway & Bryants Road,Loganholme,4129,-27.69,153.18
Coles,Stockland Shopping Centre Mulgrave Road,Earlville,4870,-16.88,145.75
Coles,Walker Road,Edmonton,4869,-17,145.74
Coles,Gympie Road,Strathpine,4500,-27.29,152.96
Coles,Dandenong Road,Mt Ommaney,4074,-27.56,152.93
Coles,114-128 Glenvale Road,Glenvale,4350,-27.62,151.77
Coles,Santa Barbara Road,Hope Island,4212,-27.92,153.33
Coles,Shop 1 Mackay Bucasia Road,Northern Beaches,4740,-21.16,149.1
Coles,Britwell Street & Margaret Street,Coolum,4573,-26.53,153.09
Coles,Forest Lake Boulevard,Forest Lake,4078,-27.61,152.95
Coles,Ashmole Road (cnr Klingner Road),Redcliffe,4020,-27.23,153.12
Coles,Park Ridge Town Centre,Park Ridge,4125,-27.75,153.03
Coles,245 Bridge Road,West Mackay,4740,-21.16,149.1
Coles,19 Robina Town Centre Drive,Robina,4230,-28.08,153.39
Coles,Shop 16,Mitchelton,4053,-27.41,152.98
Coles,Cnr Samford Road & South Pine Road,Alderley,4051,-27.42,153
Coles,312-320 Roghan Road,Taigum,4018,-27.35,153.03
Coles,31 - 39 Erin St,Wilsonton,4350,-27.62,151.77
Coles,Point Cartwright Drive,Kawana Waters,4575,-26.75,153.12
Coles,1-21 Halpine Drive,Mango Hill,4509,-27.23,153.02
Coles,37 Eggersdorf Road,Ormeau,4208,-27.75,153.26
Coles,Nambour Mill Road,Nambour,4560,-26.62,153.04
Coles,Goldfield Plaza Shopping Centre Cnr Monkland Street & O'Connell Street,Gympie,4570,-26.35,152.67
Coles,Cnr Edith Street & Ernest Street,Innisfail,4860,-17.56,146
Coles,Cnr Lannercost Street & McIlwraith Street,Ingham,4850,-18.47,145.89
Coles,Westcourt Plaza Shopping Centre,Cairns,4870,-16.88,145.75
Coles,Byron Street,Inverell,2360,-29.84,151.04
Coles,Labrador Shopping Centre,Labrador,4215,-27.97,153.42
Coles,Noosa Fair Shopping Centre,Noosa,4567,-26.43,153.11
Coles,Cnr Main Street & Bellews Street,Beenleigh,4207,-27.72,153.27
Coles,Lutwyche Shopping CentreCnr Lutwyche Road & Lowerson Street,Lutwyche,4030,-27.42,153.03
Coles,Florence Street,Wynnum,4178,-27.42,153.16
Coles,1 Plaza Circle,Highfields,4352,-28.58,151.8
Coles,Cusak Lane,Jimboomba,4280,-27.83,153.03
Coles,Musgrave Street,Berserker,4701,-23.36,150.52
Coles,Duke Street,Grafton,2460,-29.05,152.59
Coles,Toombul Shopping Centre Sandgate Road,Toombul,4012,-27.4,153.06
Coles,Minjungbal Drive,Tweed South,2486,-28.21,153.54
Coles,482 Casuarina Way,Casuarina,2487,-28.3,153.57
Coles,Petrie Terrace,Petrie Terrace,4000,-27.47,153.03
Coles,Everton Park Plaza Shopping Centre,Everton Park,4053,-27.41,152.98
Coles,Cannonhill Plaza Shopping Centre,Cannon Hill,4170,-27.47,153.1
Coles,Old Cleveland Road,Cooraparoo,4151,-27.5,153.06
Coles,Ashgrove Village Shopping Centre,Ashgrove,4060,-27.45,152.99
Coles,Arndale Shopping Centre Cinderella Drive,Springwood,4127,-27.64,153.15
Coles,Balo Square Shopping Centre Cnr Newell Highway & Gwydir Street,Moree,2400,-29.32,149.81
Coles,Tweed Heads Mall Shopping CentreCnr Pacific Highway & Frances Street,Tweed heads,2485,-28.18,153.54
Coles,Lismore Square Shopping Centre Cnr Brewster Street & Uralba Street,Lismore,2480,-28.61,153.04
Coles,Sunland Shopping Centre Cnr Bowen Avenue & First Avenue,Caloundra,4551,-26.78,153.11
Coles,Kensington Shopping CentreCnr Sovereign Avenue & Kensington Way,Strathpine,4500,-27.29,152.96
Coles,MT Pleasant Shopping Centre,Mackay,4740,-21.16,149.1
Coles,Mareeba Plaza Shopping Centre,Mareeba,4880,-17.11,145.3
Coles,Cnr Anne Street & William Street,Gatton,4343,-27.51,152.3
Coles,Grafton Mall Shopping Centre,Grafton,2460,-29.05,152.59
Coles,Mt Isa Plaza Shopping Centre Cnr Marian Street & Simpson Street,Mt Isa,4825,-21.16,149.1
Coles,Pinelands Plaza Shopping CentreCnr Beenleigh Road & Pinelands Road,Sunnybank Hills,4109,-27.57,153.08
Coles,Cnr Condamine Street & Patrick Street,Dalby,4405,-27.19,151.4
Coles,Toowoomba Plaza Shopping Centre Cnr Ruthven Street & Stenner Street,Toowoomba,4350,-27.62,151.77
Coles,Arana Hills Shopping Centre Cnr Patricks Road & Dawson Parade,Arana Hills,4054,-27.4,152.96
Coles,Cnr Ross River Road & Nathan Street,Aitkenvale,4814,-19.3,146.76
Coles,Cnr Oxley Road & Clewley Street,Corinda,4075,-27.54,152.98
Coles,Woodridge Plaza Shopping CentreCnr Wembley Road & Wilbur Street,Woodridge,4114,-27.66,153.12
Coles,Bundaberg Village Shopping Centre Cnr George Street & Maryborough Street,Bunderberg,4670,-24.84,152.02
Coles,Cnr Gordon Street & Brisbane Street,Ipswich,4305,-27.6,152.77
Coles,Scarborough Fair Shopping Centre,Southport,4215,-27.97,153.42
Coles,Station Street,Nerang,4211,-28.03,153.28
Coles,Marsden Park Shopping Centre,Marsden,4132,-27.69,153.09
Coles,Moranbah Fair Shopping Centre,Moranbah,4744,-22,148.05
Coles,Redbank Plaza Shopping CentreCnr Collingwood Drive & Law Street,Redbank,4301,-27.61,152.86
Coles,Cnr Brsibane Street & Woolumbin Street,Murwillambah,2484,-28.4,153.17
Coles,The Gap Village Shopping Centre,The Gap,4061,-27.44,152.94
Coles,Greenslopes Mall Shopping Centre Logab Road,Greenslopes,4120,-27.51,153.05
Coles,Toowong Village Shopping Centre Sherwood Road,Toowong,4066,-27.48,152.99
Coles,Capalaba Park Shopping Centre Cnr Redland Bay Road & Mt Cotton Road,Capalaba,4157,-27.53,153.19
Coles,Edward Street,Ayr,4807,-19.55,147.44
Coles,Beaudesert Fair Shopping Centre Cnr Anna Street & William Street,Beaudesert,4285,-27.9,152.94
Coles,Fairfield Shopping CentreCnr Brougham Street & Fairfield Road,Fairfield,4103,-27.51,153.03
Coles,Pialba Plaza Shopping Centre,Pialba,4655,-25.35,152.89
Coles,Sunnybank Plaza Shopping Centre Cnr Mains Road & McCulloch Street,Sunnybank,4109,-27.57,153.08
Coles,Kenmore Village Shopping Centre Brookfield Road,Kenmore,4069,-27.49,152.9
Coles,Cnr Albany Creek Road & Wruck Cresent,Albany Creek,4035,-27.35,152.97
Coles,Cnr Fitzroy Street & Bolsover Street,Rockhampton,4700,-23.39,150.5
Coles,Kippa Ring Shopping CentreCnr Anzac Avenue & Boardman Road,Kippa Ring,4020,-27.23,153.12
Coles,Cnr Beruda Street & Burleigh Road,Burleigh West,4220,-28.09,153.45
Coles,Little Conadilly Street,Gunnedah,2380,-30.8,150.2
Coles,Sunshine Plaza Shopping Centre,Maroochydore,4558,-26.66,153.1
Coles,Mangare Sheree LittleCnr Norris Road & Telegraph Road,Bracken Ridge,4017,-27.33,153.03
Coles,Cnr Browns Plains Road & Mount Lindsay Highway,Browns Plains,4118,-27.66,153.04
Coles,Cnr Bowen Road & Ross River Road,Townsville,4810,-19.25,146.8
Coles,Willow Shopping Centre Cnr Thuringowa Drive & Herveys Range Road,Townsville,4810,-19.25,146.8
Coles,Newmarket Enoggera Road,Newmarket,4051,-27.42,153
Coles,Bay Central Shopping Centre,Harvey Bay,4655,-25.35,152.89
Coles,Cnr Lae Street & Morala Drive,Runaway Bay,4216,-27.93,153.4
Coles,Smithfield Shopping Centre Cnr Captain Cook Highway & Kennedy Highway,Cairns,4870,-16.88,145.75
Coles,Springfield Shopping CentreCnr Sapphire Street & Springfield Parkway,Camira,4300,-27.67,152.89
Coles,Cnr Margaret Street & Clifford Street,Toowoomba,4350,-27.62,151.77
Coles,Goonellabah Shopping Centre,Goonellabah,2480,-28.61,153.04
Coles,Cnr McLeod Street & Spence Street,Cairns,4870,-16.88,145.75
Coles,Merthyr Road (Delivery via Welsby Street ONLY),Newfarm,4005,-27.47,153.05
Coles,Wynnum Plaza Shopping Centre Wynnum Road,Wynnum,4178,-27.42,153.16
Coles,Cnr Middle Wynard Street & Shore Street,Cleveland,4163,-27.53,153.26
Coles,Cnr Claremont Street & Opal Street,Emerald,4720,-23.53,148.16
Coles,Anzac Avenue,Mango Hill,4509,-27.23,153.02
Coles,Macrossen Street,Port Douglas,4871,-17.61,143.19
Coles,Chermside Shopping CentreCnr Gympie Road & Hamilton Road,Chermside,4032,-27.39,153.03
Coles,Brunswick Street,Fortitude Valley,4006,-27.44,153.04
Coles,37 Birkin Road,Bellbowrie,4070,-27.55,152.87
Coles,Cnr Mooloolaba Street & Venning Street,Mooloolaba,4557,-26.68,153.12
Coles,Cnr Treelands Drive & Yamba Road,Yamba,2462,-29.62,153.07
Coles,Boundary Street,South Brisbane,4101,-27.49,153.02
Coles,Cnr Goldcoast Highway & Elkhorn Avenue,Surfers Paradise,4217,-28.01,153.39
Coles,Cnr Napper Road & Daintree Drive,Arundel,4214,-27.94,153.37
Coles,Robinson Road,West Aspley,4034,-27.36,153.02
Coles,Horizon Drive,Middle Park,4074,-27.56,152.93
Coles,Cnr Victoria Street & Mangrove Road,Mackay,4740,-21.16,149.1
Coles,100 Pelican Waters Boulevard,Pelican Waters,4551,-26.78,153.11
Coles,Nerang Village Shopping Centre Beaudesert - Nerang Road,Nerang,4211,-28.03,153.28
Coles,Cnr Dohles Rocks Drive & Goodrich Drive,Murrumba Downs,4503,-27.23,152.98
Coles,Cnr University Road & Macarthur Drive,Annandale,4814,-19.3,146.76
Coles,Level E The Myer Centre91 Queen Street,Brisbane,4000,-27.47,153.03
Coles,Karalee Shopping Centre,Chuwar,4306,-27.64,152.7
Coles,44 Brisbane Street,Ipswich,4566,-26.4,153.06
Coles,Cnr Bruce Highway & Foster Road,White Rock,4869,-17,145.74
Coles,Racecourse Road,Ascot,4007,-27.43,153.06
Coles,31Geaney Lane,Deeragun,4818,-19.2,146.66
Coles,Garden City Shopping Centre,Mount Gravatt,4122,-27.54,153.1
Coles,Stanley Street,Woolloongabba,4102,-27.5,153.04
Coles,340 1 Mudgeeraba Street,Worongary,4213,-28.14,153.32
Coles,1151 Creek Road,Carindale,4152,-27.49,153.08
Coles,Reserve Road,Upper Coomera,4209,-27.87,153.32
Coles,2Cnr Frasers Drive & Leisure Drive,Banora Point,2486,-28.21,153.54
Coles,Junction Road,Morningside,4170,-27.47,153.1
Coles,Queen Street,Brisbane,4000,-27.47,153.03
Coles,Hampton Drive,Tannum Sands,4680,-23.86,151.27
Coles,Cnr Endeavour Street & Captain Cook Highway,Clifton Beach,4879,-16.77,145.67
Coles,1 Station Road,Burpengary,4505,-27.17,152.95
Coles,Gold Coast Highway,Miami,4220,-28.09,153.45
Coles,4Cnr Gold Coast Highway,Helensvale,4212,-27.92,153.33
Coles,Sydney Road,Mackay,4740,-21.16,149.1
Coles,Building ALogan Road,Upper Mount Gravatt,4122,-27.54,153.1
Coles,3 The Terrace,North Ipswich,4305,-27.6,152.77
Coles,Bell Place,Mudgeeraba,4213,-28.14,153.32
Coles,Whitsunday Shopping CentreCnr Island Drive & Shute Harbour Road,Cannonvale,4802,-20.27,148.72
Coles,Shop 95,Newtown,4350,-27.62,151.77
Coles,107 Sippy Downs Drive,Sippy Downs,4556,-26.69,153.05
Coles,26-28 Mitchell Street,North Ward,4810,-19.25,146.8
Coles,Rajah Road,Ocean Shores,2483,-28.5,153.53
Coles,163 Ferry Road,Southport,4215,-27.97,153.42
Coles,320 Thuringowa Drive,Kirwan,4817,-19.33,146.6
Coles,Cnr Pacific Hwy and Bryants Road,Loganholme,4129,-27.69,153.18
Coles,Northpoint Shopping Centre,North Toowoomba,4350,-27.62,151.77
Coles,Station Square Shopping Centre Cnr Lennox St & Alice St,Maryborough,4650,-25.47,152.66
Coles,322 Moggill Road,Indooroopilly,4068,-27.51,152.98
Coles,Rose City Shoppingworld,Warwick,4370,-28.2,151.95
Coles,2 Norris Street,Pacific Pines,4211,-28.03,153.28
Coles,Orion Springfield Central,Springfield Central,4300,-27.67,152.89
Coles,622-640 Ripley Road,Ripley,4306,-27.64,152.7
Coles,1 City Centre Drive,Upper Coomera,4209,-27.87,153.32
Coles,Albany Creek Road,Aspley,4034,-27.36,153.02
Coles,Sunnybank Hills Shopping Centre Cnr Compton Road & Calam Road,Sunnybank Hills,4109,-27.57,153.08
Coles,David Lo Way,Pacific Paradise,4564,-26.58,153.1
Coles,Cnr Grange Road & Blackstone Road,Silkstone,4304,-27.63,152.8
Coles,Cnr Argyle Street & Redbank Plains Road,Redbank Plains,4301,-27.61,152.86
Coles,2-24 Waldron Street,Yarrabilba,4207,-27.72,153.27
Coles,Gwydir Square,Keleen,2617,-35.24,149.07
Coles,12 Sangster Place,Wanniassa,2903,-35.4,149.1
Coles,Shop EG24 Canberra Centre,Canberra,2601,-35.28,149.11
Coles,4-12 Garfield Street,Five Dock,2046,-33.85,151.13
Coles,822-826 Old Princes Highway,Sutherland,2232,-34.08,151.06
Coles,420 Secret Harbour Boulevard,Secret Harbour,6173,-32.4,115.75
Coles,49 Banksiadale Gate,Lakelands,6180,-31.78,115.86
Coles,130-130a Takalvan Street,Kensington,4670,-24.84,152.02
Coles,Clemton Park Village,Clemton Park,2194,-33.91,151.1
Coles,200 Gilchrist Drive,Campbelltown,2560,-34.08,150.83
Coles,12K Longstaff Avenue,Alkimos,6038,-32.29,115.72
Coles,227 Belmont Avenue,Cloverdale,6105,-31.96,115.93
Coles,102 Pimpama Jacob Wells Road,Pimpama,4209,-27.87,153.32
Coles,Busselton Central Shopping Centre,Busselton,6280,-33.68,115.46
Coles,York Town Road,Craigmore,5114,-34.67,138.67
Coles,Main North Road,Munno Para,5115,-34.64,138.7
Coles,Paralowie Shopping Centre Bolivar Road & Liberator Drive,Paralowie,5108,-34.76,138.61
Coles,Beach Road,Christies Beach,5165,-35.14,138.47
Coles,Aldinga District Pridham Boulevard,Aldinga Beach,5173,-35.27,138.48
Coles,Cameron Street,Mount Barker,5251,-35.13,138.89
Coles,Aberfoyle Hub Shopping Centre Hub Drive,Aberfoyle Park,5159,-35.08,138.59
Coles,Mount Barker Road,Aldgate,5154,-35.01,138.73
Coles,Cnr Marion Road & Anzac Highway,Plympton,5038,-34.97,138.54
Coles,Cnr Trower Road &,Casuarina,810,-12.38,130.88
Coles,Greenacres Shopping CentreCnr Mullers Road & Floridale Road,Greenacres,5086,-34.86,138.66
Coles,Ingle Farm Shopping CentreCnr Montague Street & Walkeys Road,Ingle Farm,5098,-34.83,138.65
Coles,North East Road,Modbury,5092,-34.83,138.69
Coles,7 Gossan Street,Broken Hill North,2880,-31.96,141.47
Coles,178 Main Road,McLaren Vale,5171,-35.16,138.59
Coles,77-81 Rundle Mall,Rundle Mall,5000,-34.93,138.6
Coles,Cnr McDowell & Nicolson Ave,Whyalla,5600,-32.94,137.58
Coles,Murray Bridge Green Shopping Centre,Murray Bridge,5253,-35.09,139.31
Coles,Cheltenham Parade,St Clair,5011,-34.88,138.54
Coles,390 Churchhill Road,Kilburn,5084,-34.86,138.6
Coles,4 Tulloch Road(Cnr Main North Road),Evanston Gardens,5116,-34.62,138.73
Coles,68-84 John Street,Salisbury,5108,-34.76,138.61
Coles,238 Diagonal Road,Warradale,5046,-35.01,138.55
Coles,2-20 Rosenthal Avenue,Lane Cove,2066,-33.81,151.17
Coles,99 Walker Street,North Sydney,2060,-33.84,151.19
Coles,566-594 Princess Hwy,Kirrawee,2232,-34.08,151.06
Coles,Cnr Darlington Drive & Leisure Drive,2486 NS,2486,-28.21,153.54
Coles,1-11 Town Terrace,Glenmore Park,2745,-33.79,150.67
Coles,Grey Street,Glen Innes,2370,-29.64,151.96
Coles,54 Old Bar Road,Old Bar,2430,-32.07,152.54
Coles,166 Mona Vale Road,St Ives,2075,-33.73,151.16
Coles,255-279 Gregory Street,South West Rocks,2431,-30.89,153.07
Coles,195 Harbour Drive Road,Coffs Harbour,2450,-30.34,153.07
Coles,River Front Plaza Belgrave Street,Kempsey,2440,-31.06,152.77
Coles,Moonee Beach Shop 23 Moonee Beach Road,Moonee Beach,2450,-30.34,153.07
Coles,Toormina Gardens Shopping Centre Cnr Toormina Drive & Minorie Drive,Toorima,2452,-30.34,153.08
Coles,Cnr Ocean & Emerald Drives,Port Macquarie,2444,-31.4,152.85
Coles,Cnr Oxley Hwy & Major Innes Drive,Port Macquarie,2444,-31.4,152.85
Coles,Cnr Bold & Tunis Streets,Laurieton,2443,-31.58,152.74
Coles,28 Haywood Street,Port Macquarie,2444,-31.4,152.85
Coles,7Cnr Avoca Drive & Sun Valley Road,Green Point,2251,-33.46,151.43
Coles,Cnr Taylor Avenue & Thomas Cook Drive,Thornton,2322,-32.8,151.66
Coles,7 Kirkham Road,Moss Vale,2577,-34.61,150.48
Coles,11 Mayall Street,Tea Gardens,2324,-32.67,151.81
Coles,Bent Street,South Grafton,2460,-29.05,152.59
Coles,Canterbury Street,Casino,2470,-28.73,152.8
Coles,Rouse Street,Tenterfield,2372,-28.93,151.7
Coles,Cnr Wyong Street & South Street,Killarney Vale,2261,-33.38,151.48
Coles,Imlay Street,Eden,2551,-37.1,149.88
Coles,Thirroul Village Plaza,Thirroul,2515,-34.31,150.93
Coles,Percy Street,Wellington,2820,-32.6,148.96
Coles,Cnr Chittaway Road & Wyong Road,Chittaway Point,2261,-33.38,151.48
Coles,Avoca Road,Kincumber,2250,-33.11,151.14
Coles,Oscar Street,Umina Beach,2256,-33.5,151.33
Coles,19-31 Walker Street,Helensburgh,2508,-34.24,150.98
Coles,Cnr Kendall Street & Macquarie Street,Cowra,2794,-33.91,148.46
Coles,Church Street,Mudgee,2850,-32.86,149.8
Coles,Kierath Shopping Centre Dandaloo Street,Narromine,2821,-32.06,148.26
Coles,Bogan Street,Parkes,2870,-32.93,148.26
Coles,Cnr Noela Place & Tenth Avenue,Budgewoi,2262,-33.21,151.49
Coles,Waterworth Drive,Mount Annan,2567,-34.05,150.76
Coles,Hamilton Road,Fairfield West,2165,-33.87,150.96
Coles,Fishery Point Road,Bonnells Bay,2264,-33.1,151.55
Coles,Chatswood Chase Shopping Centre Victoria Avenue,Chatswood,2067,-33.8,151.19
Coles,Rutherford Road,South Muswellbrook,2333,-32.39,150.47
Coles,North Richmond Shopping Centre Riverview Street,North Richmond,2754,-33.58,150.72
Coles,WINGHAMCnr Primrose Street & Isabella Street,Wingham,2429,-31.73,152.28
Coles,11 Pioneer Street,Amaroo,2914,-35.17,149.13
Coles,Cnr Talavera & Herring Roads,North Ryde,2113,-33.8,151.13
Coles,13-19 Boronia Road,Greenacre,2190,-33.89,151.06
Coles,Macfarlane Street,Merrylands,2160,-33.84,150.99
Coles,Southgate Shopping Centre,South Tamworth,2340,-30.96,150.83
Coles,Shop 1201,Shellharbour,2529,-34.57,150.83
Coles,77 Maitland Road,Mayfield,2304,-32.88,151.75
Coles,326 Camden Valley Way,Narellan,2567,-34.05,150.76
Coles,Top Ryde Shopping Centre,Ryde,2122,-33.79,151.08
Coles,540 Derrimut Road,Tarneit,3029,-37.88,144.7
Coles,289 Mt Low Park Way,Bushland Beach,4818,-19.2,146.66
Coles,200 Hummingbird Boulevard,Tarneit,3029,-37.88,144.7
Coles,Shop M01 5 Willowdale Drive,Denham Court,2565,-33.99,150.84
Coles,Lake Macquarie Fair Wilsons Roads,Mount Hutton,2290,-33,151.69
Coles,61 Mornington Tyabb Road,Mornington,3931,-38.24,145.06
Coles,Cove Street,Sorell,7172,-42.72,147.75
Coles,500-540 Torquay Road,Armstrong Creek,3217,-38.2,144.3
Coles,385 Invermay Road,Mowbray,7248,-41.42,147.13
Coles,Sandy Bay Road,Sandy bay,7005,-42.9,147.31
Coles,Risdon Road,Newtown,7008,-42.87,147.28
Coles,Burnie Plaza Shopping Centre,Burnie,7320,-41.07,145.89
Coles,11 Parsons Road,Lisarow,2250,-33.11,151.14
Coles,Cnr Ferodale Road & Medowie Rds,Medowie,2318,-32.77,151.85
Coles,20-30 Blamey Street,Revesby,2212,-33.95,151.02
Coles,15 Racecourse Cresent,Launceston,7250,-41.46,147.08
Coles,Salamander Bay,Salamander Bay,2317,-32.72,152.08
Coles,2-4 Defries Avenue,Zetland,2017,-33.9,151.21
Coles,101-111 Willoughby Road,Crows Nest,2065,-33.83,151.2
Coles,East Street,Narrandera,2700,-35.03,146.61
Coles,200 Crown Street,Wollongong,2500,-34.44,150.89
Coles,1 Burton Street,VINCENTIA,2540,-34.89,150.53
Coles,Stocklands Shopping Centre,Wetherill Park,2164,-33.85,150.94
Coles,179-183 Gray Street,Hamilton,3300,-37.88,141.96
Coles,91s Spring Hill Drive,Cranbourne,3977,-38.21,145.32
Coles,Eastlands S/C,Rosny,7018,-42.87,147.37
Coles,Reiby Street,Ulverston,7315,-41.21,146.18
Coles,390 Churchhill Road,Kilburn,5082,-34.9,138.59
Coles,340 Craigieburn Road,Craigieburn,3064,-37.6,144.94
Coles,28-72 Neale Road,Deer Park,3023,-37.75,144.75
Coles,Invermay Road,Mowbray,7248,-41.42,147.13
Coles,61 High Street,Woodend,3442,-37.39,144.45
Coles,Lansell Square,Kangaroo Flat,3555,-36.83,144.23
Coles,25 Station Road,Melton South,3338,-37.7,144.54
Coles,26-32 Murradoc Road,Drysdale,3222,-38.16,144.56
Coles,Cnr Gunn Street & Best Street,Devonport,7310,-41.24,146.32
Coles,140 Windemere Blvd,Pakenham,3810,-38.08,145.49
Coles,Cnr John Street & Channel Highway,Kingston,7050,-42.96,147.32
Coles,Northgate Shopping CentreCnr Main Road & Riddoch Street,Glenorchy,7010,-42.82,147.3
Coles,Meadow Mews Shopping Centre Hobart Road,Kings Meadows,7249,-41.47,147.16
Coles,Covehill Fair Shopping Centre Cnr Derwent Highway & Covehill RoadEast,Bridgewater,7030,-42.42,147.14
Coles,198 Charles Street,Launceston South,7250,-41.46,147.08
Coles,Wellington Wellington Street,Launceston,7250,-41.46,147.08
Coles,Elphin Road,Newstead,7250,-41.46,147.08
Coles,330 Ballarat Road,Braybrook,3019,-37.78,144.86
Coles,Torquay Central 41-57 Bristol Road,Torquay,3228,-38.33,144.26
Coles,2 Richardson Grove,Berwick,3806,-38.03,145.34
Coles,Casey Central Shopping Centre,Narre Warren South,3805,-38.02,145.3
Coles,Cnr Hovell Street and Elgin Boulevard,Wodonga,3689,-37.68,144.99
Coles,22 Empire Street,Branxton,2335,-32.65,151.28
Coles,250 Somerton Road,Roxburgh Park,3064,-37.6,144.94
Coles,15 Halifax Street,Macquarie Park,2113,-33.8,151.13
Coles,290 Gordons Road,South Morang,3752,-37.65,145.1
Coles,11 Ferrers Street,Mount Gambier,5290,-37.83,140.78
Coles,355-357 Waterloo Road,Chullora,2190,-33.89,151.06
Coles,2-4 Princes Domain Drive,Hallam,3803,-38,145.27
Coles,540 Tarneit Road,Tarneit West,3029,-37.88,144.7
Coles,50 Old Geelong Road,Hoppers Crossing,3029,-37.88,144.7
Coles,Market Arcade Shop 5,Warrnambool,3280,-38.36,142.44
Coles,PARKHILL JUNCTION SHOPPINGCENTRE Parkhill Drive,Berwick,3806,-38.03,145.34
Coles,Doncaster Road,Doncaster,3108,-37.78,145.12
Coles,Murray Road,Preston,3072,-37.74,145.03
Coles,RIVERSIDE PLAZA Shop 1 Goulburn Valley Highway,Shepparton South,3630,-36.36,145.4
Coles,441-459 Glenhuntly Road,Elsternwick,3185,-37.88,145
Coles,280 Berwick-Cranbourne Road,Cranbourne East,3977,-38.21,145.32
Coles,1435 Plenty Road,Mernda,3754,-37.62,145.15
Coles,363-369 High Street,Kew,3101,-37.81,145.04
Coles,Footscray Plaza Shopping Centre,Footscray,3011,-37.8,144.9
Coles,Aurora Town Centre,Epping North,3076,-37.64,145.01
Coles,Cnr High Street & Williamstown Road,Yarraville,3013,-37.82,144.89
Coles,140-144 Bromfield Street,Colac,3250,-38.34,143.58
Coles,120 Station Lake Road,Lara,3212,-38.02,144.41
Coles,Watton Street,Werribee,3030,-37.97,144.58
Coles,Shop 8 High Street,Wallen,3756,-37.4,144.8
Coles,Seymour Central Tallarook Street,Seymour,3660,-37.09,145.5
Coles,Bay City Shopping Centre Level 1 Moorabool Street,Geelong,3220,-38.18,145.11
Coles,Maroondah Highway,East Ringwood,3135,-37.82,145.25
Coles,Northcote Plaza Separation Street,Northcote,3070,-37.77,145
Coles,Lalor PlazaCnr McKimmies Road & Darebin Road,Lalor,3075,-37.67,145.02
Coles,Bluff Road,Hampton,3188,-37.93,145.03
Coles,Mt Alexander Road,Essendon,3040,-37.76,144.9
Coles,Shop 2 Westwood Drive,Burnside,3951,-38.39,145.89
Coles,Union Street,Brunswick West,3055,-37.77,144.94
Coles,Ashley Street,Braybrook,3019,-37.78,144.86
Coles,A High Street,Belmont,3215,-38.11,144.33
Coles,Belmore Road,Balwyn,3129,-37.8,145.13
Coles,Victoria Street,Ballarat,3350,-37.56,143.82
Coles,2615 The Avenue,Sunshine West,3020,-37.78,144.82
Coles,735 Riversdale Road,Canterbury,3126,-37.84,145.09
Coles,124-138 Union Road,Surrey Hills,3127,-37.82,145.1
Coles,High Street,Bayswater,3084,-37.74,145.09
Coles,Shop 1-M01 Louis Street,AIRPORT WEST,3042,-37.71,144.89
Coles,173-199 Pioneer Road,Waurn Ponds,3216,-38.18,144.34
Coles,850 Plenty Road,Reservoir,3073,-37.69,145.01
Coles,380 Bay Street,Brighton,3186,-37.91,144.99
Coles,Lot 100 Soldiers Parade,Edmondson Park,2174,0,0
Coles,2-30 Lakeside Drive,Idalia,4811,-19.32,146.82
Coles,Carrier Street,Bennalla,3672,-36.55,145.99
Coles,Adelaide Road,McCracken,5211,-35.53,138.53
Coles,10th Fifth Avenue,Palm Beach,4221,-28.14,153.47
Coles,141 Jones Road,Buderim,4556,-26.69,153.05
Coles,8 The Avenue,Birtinya,4575,-26.75,153.12
Coles,McIvor Road,Bendigo,3550,-36.76,144.28
Coles,832 Fifteenth Street,Mildura,3500,-34.18,142.16
Coles,1Cnr Gourlay Road & Hume Drive,Taylors Hill,3037,-37.72,144.78
Coles,170 Smith Street,Collingwood,3066,-37.8,144.98
Coles,200 Donnybrook Road,Mickleham,3064,-37.6,144.94
Coles,Woodlea Local Town Centre,Rockbank,3335,-37.69,144.69
Coles,Echuca Road,Mooroopna,3629,-36.38,145.3
Coles,Chadstone Shopping Centre Shop 300Cnr Dandenong Road & Chadstone Road,Chadstone,3148,-37.89,145.08
Coles,112-114 Thompson Avenue,Cowes,3922,-38.45,145.24
Coles,Victoria Street,Coburg,3058,-37.73,144.96
Coles,Eastland Shopping Centre Maroondah Highway,Ringwood,3134,-37.81,145.23
Coles,Hampton Park Food Market Hallam Road,Hampton Park,3976,-38.03,145.27
Coles,Knox City Shopping Centre Burwood Highway,Wantirna South,3152,-37.87,145.24
Coles,Clyde Street,Myrtleford,3737,-36.98,146.78
Coles,Hampshire Street,Sunshine,3020,-37.78,144.82
Coles,Shannon Avenue,Geelong West,3218,-38.14,144.35
Coles,Cranbourne Park SC,Cranbourne,3977,-38.21,145.32
Coles,174 Gaffney Street,Coburg North,3058,-37.73,144.96
Coles,Ballarto Road,Carrum Downs,3201,-38.09,145.19
Coles,Burke Street,Maryborough,3465,-37.07,143.68
Coles,Royal Melbourne Showgrounds Shop 1A Epsom Road,Ascot Vale,3031,-37.79,144.93
Coles,127-139 Nicholson Street,East Brunswick,3057,-37.76,144.98
Coles,160 Swan Street,Richmond,3121,-37.83,145.01
Coles,Toorak Road,Tooronga,3146,-37.85,145.07
Coles,McGinn Road,Ferny Grove,4055,-27.37,152.94
Coles,Sinnamon Road,Jindalee,4074,-27.56,152.93
Coles,Nellies Lane,Kallangur,4053,-27.41,152.98
Coles,Morayfield Vilage Shopping Centre Morayfield Road,Morayfield,4506,-27.15,152.86
Coles,Rode Shopping Centre Appleby Road,Stafford Heights,4053,-27.41,152.98
Coles,Runcorn Shopping PlazaCnr Daw Road & Warrigul Road,Runcorn,4113,-27.58,153.09
Coles,Koala Park Shopping CentreCnr Redland Bay Road & Bunker Road,Victoria Point,4165,-27.62,153.24
Coles,James Street,Yeppoon,4703,-23.11,150.7
Coles,Cnr Discovery & Sir John Overall Drive,Helensvale,4210,-27.94,153.23
Coles,Pascoe Road,Ormeau,4208,-27.75,153.26
Coles,658 Reserve Road,Upper Coomera,4209,-27.87,153.32
Coles,Benowa Garden Shopping CentreCnr Benowa Road & Ashmore Road,Benowa,4217,-28.01,153.39
Coles,Allendale Close,Mermaid Waters,4225,-28.16,153.51
Coles,Cnr Bruxner Highway & Main Street,Alstonville,2477,-28.81,153.45
Coles,Waterford Plaza Shopping CentreCnr Kingston Beenleigh Road & Tygun Road,Waterford,4133,-27.74,153.09
Coles,Cnr Havana Road & Peregian Drive,Peregian Springs,4573,-26.53,153.09
Coles,Capalaba Cental Shopping Centre Shop 2,Capalaba,4157,-27.53,153.19
Coles,Marsh Street,Armidale,2350,-30.24,152.01
Coles,Peel Street,Tamworth,2340,-30.96,150.83
Coles,Maitland Street,Narrabri,2390,-30.6,149.97
Coles,Northgate Shopping Centre Piper Street,Tamworth North,2340,-30.96,150.83
Coles,352 Princess Highway,Narre Warren,3805,-38.02,145.3
Coles,2 Biggs Drive,Wonthaggi,3995,-38.53,145.45